; Fixture: the arcs_ij.gcode toolpath with G2/G3 pre-decomposed into
; G1 chords at resolution 1.0 (generated by a planArc replica).
; Exercises: equivalence between native arc decomposition and a
; slicer emitting chords directly (arc fitting disabled).
G90
M82
G92 E0
G1 X10 Y0 Z0.4 F6000
G1 X9.945218953682733 Y1.0452846326765346 Z0.4 E0.2 F1800.0
G1 X9.781476007338057 Y2.079116908177593 Z0.4 E0.4 F1800.0
G1 X9.510565162951535 Y3.090169943749474 Z0.4 E0.6000000000000001 F1800.0
G1 X9.135454576426008 Y4.0673664307580015 Z0.4 E0.8 F1800.0
G1 X8.660254037844387 Y4.999999999999999 Z0.4 E1.0 F1800.0
G1 X8.090169943749475 Y5.877852522924732 Z0.4 E1.2 F1800.0
G1 X7.431448254773944 Y6.6913060635885815 Z0.4 E1.4 F1800.0
G1 X6.691306063588582 Y7.431448254773941 Z0.4 E1.5999999999999999 F1800.0
G1 X5.877852522924732 Y8.090169943749475 Z0.4 E1.7999999999999998 F1800.0
G1 X5.000000000000001 Y8.660254037844386 Z0.4 E1.9999999999999998 F1800.0
G1 X4.067366430758003 Y9.135454576426008 Z0.4 E2.1999999999999997 F1800.0
G1 X3.0901699437494745 Y9.510565162951535 Z0.4 E2.4 F1800.0
G1 X2.0791169081775944 Y9.781476007338055 Z0.4 E2.6 F1800.0
G1 X1.0452846326765368 Y9.945218953682733 Z0.4 E2.8000000000000003 F1800.0
G1 X0.0 Y10.0 Z0.4 E3.0000000000000004 F1800.0
G1 X20 Y10 F6000
G1 X19.948693233918952 Y8.988316780125679 Z0.4 E3.096774193548387 F1800.0
G1 X19.795299412524944 Y7.9870147991134 Z0.4 E3.193548387096774 F1800.0
G1 X19.54139256400049 Y7.006368770266421 Z0.4 E3.290322580645161 F1800.0
G1 X19.189578116202306 Y6.056441448866814 Z0.4 E3.387096774193548 F1800.0
G1 X18.74346616144582 Y5.146980374689189 Z0.4 E3.483870967741935 F1800.0
G1 X18.207634412072764 Y4.2873178490520765 Z0.4 E3.580645161290322 F1800.0
G1 X17.58758122692791 Y3.4862751727777788 Z0.4 E3.677419354838709 F1800.0
G1 X16.889669190756866 Y2.7520721277088 Z0.4 E3.774193548387096 F1800.0
G1 X16.121059825476628 Y2.092242630623015 Z0.4 E3.870967741935483 F1800.0
G1 X15.289640103269624 Y1.5135574250524915 Z0.4 E3.96774193548387 F1800.0
G1 X14.403941515576342 Y1.0219546042925831 Z0.4 E4.064516129032257 F1800.0
G1 X13.473052528448203 Y0.6224786785291965 Z0.4 E4.161290322580644 F1800.0
G1 X12.506525322587205 Y0.31922881133795755 Z0.4 E4.258064516129031 F1800.0
G1 X11.514277775045766 Y0.11531675671888664 Z0.4 E4.354838709677418 F1800.0
G1 X10.506491688387127 Y0.012834928289471748 Z0.4 E4.451612903225805 F1800.0
G1 X9.493508311612874 Y0.012834928289471748 Z0.4 E4.548387096774192 F1800.0
G1 X8.485722224954234 Y0.11531675671888664 Z0.4 E4.645161290322579 F1800.0
G1 X7.493474677412796 Y0.31922881133795755 Z0.4 E4.741935483870966 F1800.0
G1 X6.526947471551798 Y0.6224786785291947 Z0.4 E4.838709677419353 F1800.0
G1 X5.596058484423656 Y1.021954604292585 Z0.4 E4.93548387096774 F1800.0
G1 X4.710359896730375 Y1.5135574250524915 Z0.4 E5.032258064516127 F1800.0
G1 X3.878940174523371 Y2.092242630623015 Z0.4 E5.129032258064514 F1800.0
G1 X3.110330809243135 Y2.752072127708801 Z0.4 E5.225806451612901 F1800.0
G1 X2.4124187730720905 Y3.486275172777777 Z0.4 E5.322580645161288 F1800.0
G1 X1.7923655879272378 Y4.2873178490520765 Z0.4 E5.419354838709675 F1800.0
G1 X1.25653383855418 Y5.146980374689189 Z0.4 E5.516129032258062 F1800.0
G1 X0.8104218837976944 Y6.0564414488668135 Z0.4 E5.612903225806449 F1800.0
G1 X0.4586074359995109 Y7.00636877026642 Z0.4 E5.709677419354836 F1800.0
G1 X0.20470058747505604 Y7.987014799113398 Z0.4 E5.806451612903223 F1800.0
G1 X0.05130676608104778 Y8.988316780125677 Z0.4 E5.90322580645161 F1800.0
G1 X0.0 Y9.999999999999998 Z0.4 E5.999999999999997 F1800.0
G1 X0.05130676608104778 Y11.011683219874321 Z0.4 E6.096774193548384 F1800.0
G1 X0.20470058747505604 Y12.0129852008866 Z0.4 E6.193548387096771 F1800.0
G1 X0.4586074359995109 Y12.993631229733577 Z0.4 E6.290322580645158 F1800.0
G1 X0.8104218837976926 Y13.943558551133183 Z0.4 E6.387096774193545 F1800.0
G1 X1.2565338385541782 Y14.853019625310807 Z0.4 E6.483870967741932 F1800.0
G1 X1.7923655879272342 Y15.71268215094792 Z0.4 E6.580645161290319 F1800.0
G1 X2.4124187730720887 Y16.51372482722222 Z0.4 E6.677419354838706 F1800.0
G1 X3.1103308092431323 Y17.2479278722912 Z0.4 E6.774193548387093 F1800.0
G1 X3.8789401745233736 Y17.907757369376988 Z0.4 E6.87096774193548 F1800.0
G1 X4.710359896730373 Y18.48644257494751 Z0.4 E6.967741935483867 F1800.0
G1 X5.596058484423658 Y18.97804539570742 Z0.4 E7.0645161290322545 F1800.0
G1 X6.526947471551794 Y19.3775213214708 Z0.4 E7.1612903225806415 F1800.0
G1 X7.493474677412795 Y19.680771188662042 Z0.4 E7.2580645161290285 F1800.0
G1 X8.48572222495423 Y19.884683243281113 Z0.4 E7.3548387096774155 F1800.0
G1 X9.493508311612873 Y19.98716507171053 Z0.4 E7.4516129032258025 F1800.0
G1 X10.506491688387124 Y19.98716507171053 Z0.4 E7.5483870967741895 F1800.0
G1 X11.514277775045766 Y19.884683243281113 Z0.4 E7.6451612903225765 F1800.0
G1 X12.506525322587201 Y19.680771188662042 Z0.4 E7.7419354838709635 F1800.0
G1 X13.473052528448203 Y19.3775213214708 Z0.4 E7.8387096774193505 F1800.0
G1 X14.403941515576339 Y18.97804539570742 Z0.4 E7.9354838709677376 F1800.0
G1 X15.289640103269624 Y18.48644257494751 Z0.4 E8.032258064516125 F1800.0
G1 X16.121059825476625 Y17.907757369376988 Z0.4 E8.129032258064512 F1800.0
G1 X16.889669190756866 Y17.2479278722912 Z0.4 E8.2258064516129 F1800.0
G1 X17.587581226927906 Y16.513724827222227 Z0.4 E8.322580645161288 F1800.0
G1 X18.207634412072764 Y15.712682150947924 Z0.4 E8.419354838709676 F1800.0
G1 X18.743466161445816 Y14.853019625310814 Z0.4 E8.516129032258064 F1800.0
G1 X19.189578116202306 Y13.943558551133187 Z0.4 E8.612903225806452 F1800.0
G1 X19.54139256400049 Y12.993631229733586 Z0.4 E8.70967741935484 F1800.0
G1 X19.795299412524944 Y12.012985200886604 Z0.4 E8.806451612903228 F1800.0
G1 X19.948693233918952 Y11.011683219874328 Z0.4 E8.903225806451616 F1800.0
G1 X20.0 Y10.0 Z0.4 E9.000000000000004 F1800.0
G1 X20.10926199633097 Y8.960441545911204 Z0.4 F3600.0
G1 X20.432272711786997 Y7.966316784620999 Z0.4 F3600.0
G1 X20.954915028125264 Y7.061073738537634 Z0.4 F3600.0
G1 X21.654346968205708 Y6.28427587261303 Z0.4 F3600.0
G1 X22.5 Y5.669872981077807 Z0.4 F3600.0
G1 X23.454915028125264 Y5.244717418524233 Z0.4 F3600.0
G1 X24.477357683661733 Y5.027390523158633 Z0.4 F3600.0
G1 X25.522642316338267 Y5.027390523158633 Z0.4 F3600.0
G1 X26.545084971874736 Y5.244717418524232 Z0.4 F3600.0
G1 X27.5 Y5.669872981077806 Z0.4 F3600.0
G1 X28.34565303179429 Y6.284275872613028 Z0.4 F3600.0
G1 X29.045084971874736 Y7.061073738537633 Z0.4 F3600.0
G1 X29.567727288213003 Y7.966316784620998 Z0.4 F3600.0
G1 X29.89073800366903 Y8.960441545911202 Z0.4 F3600.0
G1 X30.0 Y10.0 Z0.4 F3600.0
G1 E8.5 F2100
