; Fixture: OrcaSlicer-style file, relative E (M83).
; Exercises: Orca header block and annotations (;TYPE: with Orca
; feature names, ; layer num comments), relative-E accounting,
; z-hop on retract, wall/infill TYPE blocks, M204 accel changes.
; HEADER_BLOCK_START
; generated by OrcaSlicer 2.3.0 on 2026-07-01
; total layer number: 2
; HEADER_BLOCK_END
; EXECUTABLE_BLOCK_START
M83
G90
G92 E0
M204 S5000
;LAYER_CHANGE
; layer num/total_layer_count: 1/2
G1 Z0.2 F18000
;TYPE:Inner wall
G1 X40 Y40 F18000
G1 X60 Y40 E0.6221 F3000
G1 X60 Y60 E0.6221
G1 X40 Y60 E0.6221
G1 X40 Y40 E0.6221
;TYPE:Outer wall
G1 X38 Y38 F18000
G1 X62 Y38 E0.7465 F1800
G1 X62 Y62 E0.7465
G1 X38 Y62 E0.7465
G1 X38 Y38 E0.7465
; retract, hop, travel, unhop, unretract
G1 E-0.8 F1800
G1 Z0.6 F18000
G1 X45 Y45 F18000
G1 Z0.2 F18000
G1 E0.8 F1800
;TYPE:Sparse infill
M204 S8000
G1 X55 Y45 E0.3110 F6000
G1 X45 Y55 E0.4399
;TYPE:Internal solid infill
G1 X55 Y55 E0.3110 F4800
;LAYER_CHANGE
; layer num/total_layer_count: 2/2
G1 E-0.8 F1800
G1 Z0.4 F18000
G1 X40 Y40 F18000
G1 E0.8 F1800
;TYPE:Outer wall
G1 X60 Y40 E0.7465 F2100
G1 X60 Y60 E0.7465
; EXECUTABLE_BLOCK_END
