; Fixture: PrusaSlicer-style file, absolute E (M82).
; Exercises: Prusa header/annotation comments (;TYPE:, ;LAYER_CHANGE,
; ;Z:), absolute-E accounting, G92 E0 per layer, z-hop on retract,
; two layer changes.
; generated by PrusaSlicer 2.8.1+win64 on 2026-07-01 at 12:00:00 UTC
;
; external perimeters extrusion width = 0.45mm
M83 ; will be overridden below - exercises repeated mode commands
M82
G90
G92 E0
G1 Z0.2 F7200
;TYPE:Skirt/Brim
G1 X20 Y20 F9000
G1 X60 Y20 E1.2442 F1800
G1 X60 Y60 E2.4884
G1 X20 Y60 E3.7326
G1 X20 Y20 E4.9768
;TYPE:External perimeter
G1 X30 Y30 F9000
G1 X50 Y30 E5.5989 F1200
G1 X50 Y50 E6.2210
G1 X30 Y50 E6.8431
G1 X30 Y30 E7.4652
; retract + z-hop travel
G1 E6.6652 F2100
G1 Z0.6 F7200
G1 X35 Y35 F9000
G1 Z0.2 F7200
G1 E7.4652 F2100
;TYPE:Internal infill
G1 X45 Y35 E7.7763 F3000
G1 X35 Y45 E8.2163
;LAYER_CHANGE
;Z:0.4
G92 E0
G1 Z0.4 F7200
;TYPE:External perimeter
G1 X30 Y30 F9000
G1 X50 Y30 E0.6221 F1500
G1 X50 Y50 E1.2442
G1 X30 Y50 E1.8663
G1 X30 Y30 E2.4884
;LAYER_CHANGE
;Z:0.6
G92 E0
G1 Z0.6 F7200
;TYPE:Solid infill
G1 X32 Y32 F9000
G1 X48 Y48 E0.7000 F2400
M107
M104 S0 ; start cooldown - passes through
