; Fixture: two solid 14 x 14 mm plates with a 4 mm gap between them
; (x 0..14 and x 18..32), 3 layers of 0.2 mm.
; Exercises: island separation and the drag run refusing to span the
; gap. The 4 mm gap is far wider than the 0.6 mm island link
; tolerance, so the two plates are distinct islands; a drag from
; (7,7) along +X must stop inside the first plate rather than
; 'continue' onto the second.
G90
M83
G92 E0
;LAYER_CHANGE
;Z:0.20
G1 Z0.20 F7200
;TYPE:Internal solid infill
G1 X0.000 Y0.000 F9000
G1 X14.000 Y0.000 E0.5236 F1800
G1 X18.000 Y0.000 F9000
G1 X32.000 Y0.000 E0.5236 F1800
G1 X0.000 Y0.400 F9000
G1 X14.000 Y0.400 E0.5236 F1800
G1 X18.000 Y0.400 F9000
G1 X32.000 Y0.400 E0.5236 F1800
G1 X0.000 Y0.800 F9000
G1 X14.000 Y0.800 E0.5236 F1800
G1 X18.000 Y0.800 F9000
G1 X32.000 Y0.800 E0.5236 F1800
G1 X0.000 Y1.200 F9000
G1 X14.000 Y1.200 E0.5236 F1800
G1 X18.000 Y1.200 F9000
G1 X32.000 Y1.200 E0.5236 F1800
G1 X0.000 Y1.600 F9000
G1 X14.000 Y1.600 E0.5236 F1800
G1 X18.000 Y1.600 F9000
G1 X32.000 Y1.600 E0.5236 F1800
G1 X0.000 Y2.000 F9000
G1 X14.000 Y2.000 E0.5236 F1800
G1 X18.000 Y2.000 F9000
G1 X32.000 Y2.000 E0.5236 F1800
G1 X0.000 Y2.400 F9000
G1 X14.000 Y2.400 E0.5236 F1800
G1 X18.000 Y2.400 F9000
G1 X32.000 Y2.400 E0.5236 F1800
G1 X0.000 Y2.800 F9000
G1 X14.000 Y2.800 E0.5236 F1800
G1 X18.000 Y2.800 F9000
G1 X32.000 Y2.800 E0.5236 F1800
G1 X0.000 Y3.200 F9000
G1 X14.000 Y3.200 E0.5236 F1800
G1 X18.000 Y3.200 F9000
G1 X32.000 Y3.200 E0.5236 F1800
G1 X0.000 Y3.600 F9000
G1 X14.000 Y3.600 E0.5236 F1800
G1 X18.000 Y3.600 F9000
G1 X32.000 Y3.600 E0.5236 F1800
G1 X0.000 Y4.000 F9000
G1 X14.000 Y4.000 E0.5236 F1800
G1 X18.000 Y4.000 F9000
G1 X32.000 Y4.000 E0.5236 F1800
G1 X0.000 Y4.400 F9000
G1 X14.000 Y4.400 E0.5236 F1800
G1 X18.000 Y4.400 F9000
G1 X32.000 Y4.400 E0.5236 F1800
G1 X0.000 Y4.800 F9000
G1 X14.000 Y4.800 E0.5236 F1800
G1 X18.000 Y4.800 F9000
G1 X32.000 Y4.800 E0.5236 F1800
G1 X0.000 Y5.200 F9000
G1 X14.000 Y5.200 E0.5236 F1800
G1 X18.000 Y5.200 F9000
G1 X32.000 Y5.200 E0.5236 F1800
G1 X0.000 Y5.600 F9000
G1 X14.000 Y5.600 E0.5236 F1800
G1 X18.000 Y5.600 F9000
G1 X32.000 Y5.600 E0.5236 F1800
G1 X0.000 Y6.000 F9000
G1 X14.000 Y6.000 E0.5236 F1800
G1 X18.000 Y6.000 F9000
G1 X32.000 Y6.000 E0.5236 F1800
G1 X0.000 Y6.400 F9000
G1 X14.000 Y6.400 E0.5236 F1800
G1 X18.000 Y6.400 F9000
G1 X32.000 Y6.400 E0.5236 F1800
G1 X0.000 Y6.800 F9000
G1 X14.000 Y6.800 E0.5236 F1800
G1 X18.000 Y6.800 F9000
G1 X32.000 Y6.800 E0.5236 F1800
G1 X0.000 Y7.200 F9000
G1 X14.000 Y7.200 E0.5236 F1800
G1 X18.000 Y7.200 F9000
G1 X32.000 Y7.200 E0.5236 F1800
G1 X0.000 Y7.600 F9000
G1 X14.000 Y7.600 E0.5236 F1800
G1 X18.000 Y7.600 F9000
G1 X32.000 Y7.600 E0.5236 F1800
G1 X0.000 Y8.000 F9000
G1 X14.000 Y8.000 E0.5236 F1800
G1 X18.000 Y8.000 F9000
G1 X32.000 Y8.000 E0.5236 F1800
G1 X0.000 Y8.400 F9000
G1 X14.000 Y8.400 E0.5236 F1800
G1 X18.000 Y8.400 F9000
G1 X32.000 Y8.400 E0.5236 F1800
G1 X0.000 Y8.800 F9000
G1 X14.000 Y8.800 E0.5236 F1800
G1 X18.000 Y8.800 F9000
G1 X32.000 Y8.800 E0.5236 F1800
G1 X0.000 Y9.200 F9000
G1 X14.000 Y9.200 E0.5236 F1800
G1 X18.000 Y9.200 F9000
G1 X32.000 Y9.200 E0.5236 F1800
G1 X0.000 Y9.600 F9000
G1 X14.000 Y9.600 E0.5236 F1800
G1 X18.000 Y9.600 F9000
G1 X32.000 Y9.600 E0.5236 F1800
G1 X0.000 Y10.000 F9000
G1 X14.000 Y10.000 E0.5236 F1800
G1 X18.000 Y10.000 F9000
G1 X32.000 Y10.000 E0.5236 F1800
G1 X0.000 Y10.400 F9000
G1 X14.000 Y10.400 E0.5236 F1800
G1 X18.000 Y10.400 F9000
G1 X32.000 Y10.400 E0.5236 F1800
G1 X0.000 Y10.800 F9000
G1 X14.000 Y10.800 E0.5236 F1800
G1 X18.000 Y10.800 F9000
G1 X32.000 Y10.800 E0.5236 F1800
G1 X0.000 Y11.200 F9000
G1 X14.000 Y11.200 E0.5236 F1800
G1 X18.000 Y11.200 F9000
G1 X32.000 Y11.200 E0.5236 F1800
G1 X0.000 Y11.600 F9000
G1 X14.000 Y11.600 E0.5236 F1800
G1 X18.000 Y11.600 F9000
G1 X32.000 Y11.600 E0.5236 F1800
G1 X0.000 Y12.000 F9000
G1 X14.000 Y12.000 E0.5236 F1800
G1 X18.000 Y12.000 F9000
G1 X32.000 Y12.000 E0.5236 F1800
G1 X0.000 Y12.400 F9000
G1 X14.000 Y12.400 E0.5236 F1800
G1 X18.000 Y12.400 F9000
G1 X32.000 Y12.400 E0.5236 F1800
G1 X0.000 Y12.800 F9000
G1 X14.000 Y12.800 E0.5236 F1800
G1 X18.000 Y12.800 F9000
G1 X32.000 Y12.800 E0.5236 F1800
G1 X0.000 Y13.200 F9000
G1 X14.000 Y13.200 E0.5236 F1800
G1 X18.000 Y13.200 F9000
G1 X32.000 Y13.200 E0.5236 F1800
G1 X0.000 Y13.600 F9000
G1 X14.000 Y13.600 E0.5236 F1800
G1 X18.000 Y13.600 F9000
G1 X32.000 Y13.600 E0.5236 F1800
G1 X0.000 Y14.000 F9000
G1 X14.000 Y14.000 E0.5236 F1800
G1 X18.000 Y14.000 F9000
G1 X32.000 Y14.000 E0.5236 F1800
;LAYER_CHANGE
;Z:0.40
G1 Z0.40 F7200
;TYPE:Internal solid infill
G1 X0.000 Y0.000 F9000
G1 X14.000 Y0.000 E0.5236 F1800
G1 X18.000 Y0.000 F9000
G1 X32.000 Y0.000 E0.5236 F1800
G1 X0.000 Y0.400 F9000
G1 X14.000 Y0.400 E0.5236 F1800
G1 X18.000 Y0.400 F9000
G1 X32.000 Y0.400 E0.5236 F1800
G1 X0.000 Y0.800 F9000
G1 X14.000 Y0.800 E0.5236 F1800
G1 X18.000 Y0.800 F9000
G1 X32.000 Y0.800 E0.5236 F1800
G1 X0.000 Y1.200 F9000
G1 X14.000 Y1.200 E0.5236 F1800
G1 X18.000 Y1.200 F9000
G1 X32.000 Y1.200 E0.5236 F1800
G1 X0.000 Y1.600 F9000
G1 X14.000 Y1.600 E0.5236 F1800
G1 X18.000 Y1.600 F9000
G1 X32.000 Y1.600 E0.5236 F1800
G1 X0.000 Y2.000 F9000
G1 X14.000 Y2.000 E0.5236 F1800
G1 X18.000 Y2.000 F9000
G1 X32.000 Y2.000 E0.5236 F1800
G1 X0.000 Y2.400 F9000
G1 X14.000 Y2.400 E0.5236 F1800
G1 X18.000 Y2.400 F9000
G1 X32.000 Y2.400 E0.5236 F1800
G1 X0.000 Y2.800 F9000
G1 X14.000 Y2.800 E0.5236 F1800
G1 X18.000 Y2.800 F9000
G1 X32.000 Y2.800 E0.5236 F1800
G1 X0.000 Y3.200 F9000
G1 X14.000 Y3.200 E0.5236 F1800
G1 X18.000 Y3.200 F9000
G1 X32.000 Y3.200 E0.5236 F1800
G1 X0.000 Y3.600 F9000
G1 X14.000 Y3.600 E0.5236 F1800
G1 X18.000 Y3.600 F9000
G1 X32.000 Y3.600 E0.5236 F1800
G1 X0.000 Y4.000 F9000
G1 X14.000 Y4.000 E0.5236 F1800
G1 X18.000 Y4.000 F9000
G1 X32.000 Y4.000 E0.5236 F1800
G1 X0.000 Y4.400 F9000
G1 X14.000 Y4.400 E0.5236 F1800
G1 X18.000 Y4.400 F9000
G1 X32.000 Y4.400 E0.5236 F1800
G1 X0.000 Y4.800 F9000
G1 X14.000 Y4.800 E0.5236 F1800
G1 X18.000 Y4.800 F9000
G1 X32.000 Y4.800 E0.5236 F1800
G1 X0.000 Y5.200 F9000
G1 X14.000 Y5.200 E0.5236 F1800
G1 X18.000 Y5.200 F9000
G1 X32.000 Y5.200 E0.5236 F1800
G1 X0.000 Y5.600 F9000
G1 X14.000 Y5.600 E0.5236 F1800
G1 X18.000 Y5.600 F9000
G1 X32.000 Y5.600 E0.5236 F1800
G1 X0.000 Y6.000 F9000
G1 X14.000 Y6.000 E0.5236 F1800
G1 X18.000 Y6.000 F9000
G1 X32.000 Y6.000 E0.5236 F1800
G1 X0.000 Y6.400 F9000
G1 X14.000 Y6.400 E0.5236 F1800
G1 X18.000 Y6.400 F9000
G1 X32.000 Y6.400 E0.5236 F1800
G1 X0.000 Y6.800 F9000
G1 X14.000 Y6.800 E0.5236 F1800
G1 X18.000 Y6.800 F9000
G1 X32.000 Y6.800 E0.5236 F1800
G1 X0.000 Y7.200 F9000
G1 X14.000 Y7.200 E0.5236 F1800
G1 X18.000 Y7.200 F9000
G1 X32.000 Y7.200 E0.5236 F1800
G1 X0.000 Y7.600 F9000
G1 X14.000 Y7.600 E0.5236 F1800
G1 X18.000 Y7.600 F9000
G1 X32.000 Y7.600 E0.5236 F1800
G1 X0.000 Y8.000 F9000
G1 X14.000 Y8.000 E0.5236 F1800
G1 X18.000 Y8.000 F9000
G1 X32.000 Y8.000 E0.5236 F1800
G1 X0.000 Y8.400 F9000
G1 X14.000 Y8.400 E0.5236 F1800
G1 X18.000 Y8.400 F9000
G1 X32.000 Y8.400 E0.5236 F1800
G1 X0.000 Y8.800 F9000
G1 X14.000 Y8.800 E0.5236 F1800
G1 X18.000 Y8.800 F9000
G1 X32.000 Y8.800 E0.5236 F1800
G1 X0.000 Y9.200 F9000
G1 X14.000 Y9.200 E0.5236 F1800
G1 X18.000 Y9.200 F9000
G1 X32.000 Y9.200 E0.5236 F1800
G1 X0.000 Y9.600 F9000
G1 X14.000 Y9.600 E0.5236 F1800
G1 X18.000 Y9.600 F9000
G1 X32.000 Y9.600 E0.5236 F1800
G1 X0.000 Y10.000 F9000
G1 X14.000 Y10.000 E0.5236 F1800
G1 X18.000 Y10.000 F9000
G1 X32.000 Y10.000 E0.5236 F1800
G1 X0.000 Y10.400 F9000
G1 X14.000 Y10.400 E0.5236 F1800
G1 X18.000 Y10.400 F9000
G1 X32.000 Y10.400 E0.5236 F1800
G1 X0.000 Y10.800 F9000
G1 X14.000 Y10.800 E0.5236 F1800
G1 X18.000 Y10.800 F9000
G1 X32.000 Y10.800 E0.5236 F1800
G1 X0.000 Y11.200 F9000
G1 X14.000 Y11.200 E0.5236 F1800
G1 X18.000 Y11.200 F9000
G1 X32.000 Y11.200 E0.5236 F1800
G1 X0.000 Y11.600 F9000
G1 X14.000 Y11.600 E0.5236 F1800
G1 X18.000 Y11.600 F9000
G1 X32.000 Y11.600 E0.5236 F1800
G1 X0.000 Y12.000 F9000
G1 X14.000 Y12.000 E0.5236 F1800
G1 X18.000 Y12.000 F9000
G1 X32.000 Y12.000 E0.5236 F1800
G1 X0.000 Y12.400 F9000
G1 X14.000 Y12.400 E0.5236 F1800
G1 X18.000 Y12.400 F9000
G1 X32.000 Y12.400 E0.5236 F1800
G1 X0.000 Y12.800 F9000
G1 X14.000 Y12.800 E0.5236 F1800
G1 X18.000 Y12.800 F9000
G1 X32.000 Y12.800 E0.5236 F1800
G1 X0.000 Y13.200 F9000
G1 X14.000 Y13.200 E0.5236 F1800
G1 X18.000 Y13.200 F9000
G1 X32.000 Y13.200 E0.5236 F1800
G1 X0.000 Y13.600 F9000
G1 X14.000 Y13.600 E0.5236 F1800
G1 X18.000 Y13.600 F9000
G1 X32.000 Y13.600 E0.5236 F1800
G1 X0.000 Y14.000 F9000
G1 X14.000 Y14.000 E0.5236 F1800
G1 X18.000 Y14.000 F9000
G1 X32.000 Y14.000 E0.5236 F1800
;LAYER_CHANGE
;Z:0.60
G1 Z0.60 F7200
;TYPE:Internal solid infill
G1 X0.000 Y0.000 F9000
G1 X14.000 Y0.000 E0.5236 F1800
G1 X18.000 Y0.000 F9000
G1 X32.000 Y0.000 E0.5236 F1800
G1 X0.000 Y0.400 F9000
G1 X14.000 Y0.400 E0.5236 F1800
G1 X18.000 Y0.400 F9000
G1 X32.000 Y0.400 E0.5236 F1800
G1 X0.000 Y0.800 F9000
G1 X14.000 Y0.800 E0.5236 F1800
G1 X18.000 Y0.800 F9000
G1 X32.000 Y0.800 E0.5236 F1800
G1 X0.000 Y1.200 F9000
G1 X14.000 Y1.200 E0.5236 F1800
G1 X18.000 Y1.200 F9000
G1 X32.000 Y1.200 E0.5236 F1800
G1 X0.000 Y1.600 F9000
G1 X14.000 Y1.600 E0.5236 F1800
G1 X18.000 Y1.600 F9000
G1 X32.000 Y1.600 E0.5236 F1800
G1 X0.000 Y2.000 F9000
G1 X14.000 Y2.000 E0.5236 F1800
G1 X18.000 Y2.000 F9000
G1 X32.000 Y2.000 E0.5236 F1800
G1 X0.000 Y2.400 F9000
G1 X14.000 Y2.400 E0.5236 F1800
G1 X18.000 Y2.400 F9000
G1 X32.000 Y2.400 E0.5236 F1800
G1 X0.000 Y2.800 F9000
G1 X14.000 Y2.800 E0.5236 F1800
G1 X18.000 Y2.800 F9000
G1 X32.000 Y2.800 E0.5236 F1800
G1 X0.000 Y3.200 F9000
G1 X14.000 Y3.200 E0.5236 F1800
G1 X18.000 Y3.200 F9000
G1 X32.000 Y3.200 E0.5236 F1800
G1 X0.000 Y3.600 F9000
G1 X14.000 Y3.600 E0.5236 F1800
G1 X18.000 Y3.600 F9000
G1 X32.000 Y3.600 E0.5236 F1800
G1 X0.000 Y4.000 F9000
G1 X14.000 Y4.000 E0.5236 F1800
G1 X18.000 Y4.000 F9000
G1 X32.000 Y4.000 E0.5236 F1800
G1 X0.000 Y4.400 F9000
G1 X14.000 Y4.400 E0.5236 F1800
G1 X18.000 Y4.400 F9000
G1 X32.000 Y4.400 E0.5236 F1800
G1 X0.000 Y4.800 F9000
G1 X14.000 Y4.800 E0.5236 F1800
G1 X18.000 Y4.800 F9000
G1 X32.000 Y4.800 E0.5236 F1800
G1 X0.000 Y5.200 F9000
G1 X14.000 Y5.200 E0.5236 F1800
G1 X18.000 Y5.200 F9000
G1 X32.000 Y5.200 E0.5236 F1800
G1 X0.000 Y5.600 F9000
G1 X14.000 Y5.600 E0.5236 F1800
G1 X18.000 Y5.600 F9000
G1 X32.000 Y5.600 E0.5236 F1800
G1 X0.000 Y6.000 F9000
G1 X14.000 Y6.000 E0.5236 F1800
G1 X18.000 Y6.000 F9000
G1 X32.000 Y6.000 E0.5236 F1800
G1 X0.000 Y6.400 F9000
G1 X14.000 Y6.400 E0.5236 F1800
G1 X18.000 Y6.400 F9000
G1 X32.000 Y6.400 E0.5236 F1800
G1 X0.000 Y6.800 F9000
G1 X14.000 Y6.800 E0.5236 F1800
G1 X18.000 Y6.800 F9000
G1 X32.000 Y6.800 E0.5236 F1800
G1 X0.000 Y7.200 F9000
G1 X14.000 Y7.200 E0.5236 F1800
G1 X18.000 Y7.200 F9000
G1 X32.000 Y7.200 E0.5236 F1800
G1 X0.000 Y7.600 F9000
G1 X14.000 Y7.600 E0.5236 F1800
G1 X18.000 Y7.600 F9000
G1 X32.000 Y7.600 E0.5236 F1800
G1 X0.000 Y8.000 F9000
G1 X14.000 Y8.000 E0.5236 F1800
G1 X18.000 Y8.000 F9000
G1 X32.000 Y8.000 E0.5236 F1800
G1 X0.000 Y8.400 F9000
G1 X14.000 Y8.400 E0.5236 F1800
G1 X18.000 Y8.400 F9000
G1 X32.000 Y8.400 E0.5236 F1800
G1 X0.000 Y8.800 F9000
G1 X14.000 Y8.800 E0.5236 F1800
G1 X18.000 Y8.800 F9000
G1 X32.000 Y8.800 E0.5236 F1800
G1 X0.000 Y9.200 F9000
G1 X14.000 Y9.200 E0.5236 F1800
G1 X18.000 Y9.200 F9000
G1 X32.000 Y9.200 E0.5236 F1800
G1 X0.000 Y9.600 F9000
G1 X14.000 Y9.600 E0.5236 F1800
G1 X18.000 Y9.600 F9000
G1 X32.000 Y9.600 E0.5236 F1800
G1 X0.000 Y10.000 F9000
G1 X14.000 Y10.000 E0.5236 F1800
G1 X18.000 Y10.000 F9000
G1 X32.000 Y10.000 E0.5236 F1800
G1 X0.000 Y10.400 F9000
G1 X14.000 Y10.400 E0.5236 F1800
G1 X18.000 Y10.400 F9000
G1 X32.000 Y10.400 E0.5236 F1800
G1 X0.000 Y10.800 F9000
G1 X14.000 Y10.800 E0.5236 F1800
G1 X18.000 Y10.800 F9000
G1 X32.000 Y10.800 E0.5236 F1800
G1 X0.000 Y11.200 F9000
G1 X14.000 Y11.200 E0.5236 F1800
G1 X18.000 Y11.200 F9000
G1 X32.000 Y11.200 E0.5236 F1800
G1 X0.000 Y11.600 F9000
G1 X14.000 Y11.600 E0.5236 F1800
G1 X18.000 Y11.600 F9000
G1 X32.000 Y11.600 E0.5236 F1800
G1 X0.000 Y12.000 F9000
G1 X14.000 Y12.000 E0.5236 F1800
G1 X18.000 Y12.000 F9000
G1 X32.000 Y12.000 E0.5236 F1800
G1 X0.000 Y12.400 F9000
G1 X14.000 Y12.400 E0.5236 F1800
G1 X18.000 Y12.400 F9000
G1 X32.000 Y12.400 E0.5236 F1800
G1 X0.000 Y12.800 F9000
G1 X14.000 Y12.800 E0.5236 F1800
G1 X18.000 Y12.800 F9000
G1 X32.000 Y12.800 E0.5236 F1800
G1 X0.000 Y13.200 F9000
G1 X14.000 Y13.200 E0.5236 F1800
G1 X18.000 Y13.200 F9000
G1 X32.000 Y13.200 E0.5236 F1800
G1 X0.000 Y13.600 F9000
G1 X14.000 Y13.600 E0.5236 F1800
G1 X18.000 Y13.600 F9000
G1 X32.000 Y13.600 E0.5236 F1800
G1 X0.000 Y14.000 F9000
G1 X14.000 Y14.000 E0.5236 F1800
G1 X18.000 Y14.000 F9000
G1 X32.000 Y14.000 E0.5236 F1800
