; Fixture: a solid 20 x 20 mm plate, 3 layers of 0.2 mm.
; Exercises: the all-pass case. ~344 mm^2 of traced bed contact,
; aspect 0.6 / 18.5 = 0.03, 20 mm across, and ~10 mm of edge margin
; at the centre -- every criterion clears with room to spare. Also
; the reference geometry for the largest-clear-run assertions: from
; (10,10) at a 3 mm margin the longest run is the 45-degree diagonal
; to the clear-region corner, ~10 mm.
G90
M83
G92 E0
;LAYER_CHANGE
;Z:0.20
G1 Z0.20 F7200
;TYPE:Internal solid infill
G1 X0.000 Y0.000 F9000
G1 X20.000 Y0.000 E0.7480 F1800
G1 X0.000 Y0.400 F9000
G1 X20.000 Y0.400 E0.7480 F1800
G1 X0.000 Y0.800 F9000
G1 X20.000 Y0.800 E0.7480 F1800
G1 X0.000 Y1.200 F9000
G1 X20.000 Y1.200 E0.7480 F1800
G1 X0.000 Y1.600 F9000
G1 X20.000 Y1.600 E0.7480 F1800
G1 X0.000 Y2.000 F9000
G1 X20.000 Y2.000 E0.7480 F1800
G1 X0.000 Y2.400 F9000
G1 X20.000 Y2.400 E0.7480 F1800
G1 X0.000 Y2.800 F9000
G1 X20.000 Y2.800 E0.7480 F1800
G1 X0.000 Y3.200 F9000
G1 X20.000 Y3.200 E0.7480 F1800
G1 X0.000 Y3.600 F9000
G1 X20.000 Y3.600 E0.7480 F1800
G1 X0.000 Y4.000 F9000
G1 X20.000 Y4.000 E0.7480 F1800
G1 X0.000 Y4.400 F9000
G1 X20.000 Y4.400 E0.7480 F1800
G1 X0.000 Y4.800 F9000
G1 X20.000 Y4.800 E0.7480 F1800
G1 X0.000 Y5.200 F9000
G1 X20.000 Y5.200 E0.7480 F1800
G1 X0.000 Y5.600 F9000
G1 X20.000 Y5.600 E0.7480 F1800
G1 X0.000 Y6.000 F9000
G1 X20.000 Y6.000 E0.7480 F1800
G1 X0.000 Y6.400 F9000
G1 X20.000 Y6.400 E0.7480 F1800
G1 X0.000 Y6.800 F9000
G1 X20.000 Y6.800 E0.7480 F1800
G1 X0.000 Y7.200 F9000
G1 X20.000 Y7.200 E0.7480 F1800
G1 X0.000 Y7.600 F9000
G1 X20.000 Y7.600 E0.7480 F1800
G1 X0.000 Y8.000 F9000
G1 X20.000 Y8.000 E0.7480 F1800
G1 X0.000 Y8.400 F9000
G1 X20.000 Y8.400 E0.7480 F1800
G1 X0.000 Y8.800 F9000
G1 X20.000 Y8.800 E0.7480 F1800
G1 X0.000 Y9.200 F9000
G1 X20.000 Y9.200 E0.7480 F1800
G1 X0.000 Y9.600 F9000
G1 X20.000 Y9.600 E0.7480 F1800
G1 X0.000 Y10.000 F9000
G1 X20.000 Y10.000 E0.7480 F1800
G1 X0.000 Y10.400 F9000
G1 X20.000 Y10.400 E0.7480 F1800
G1 X0.000 Y10.800 F9000
G1 X20.000 Y10.800 E0.7480 F1800
G1 X0.000 Y11.200 F9000
G1 X20.000 Y11.200 E0.7480 F1800
G1 X0.000 Y11.600 F9000
G1 X20.000 Y11.600 E0.7480 F1800
G1 X0.000 Y12.000 F9000
G1 X20.000 Y12.000 E0.7480 F1800
G1 X0.000 Y12.400 F9000
G1 X20.000 Y12.400 E0.7480 F1800
G1 X0.000 Y12.800 F9000
G1 X20.000 Y12.800 E0.7480 F1800
G1 X0.000 Y13.200 F9000
G1 X20.000 Y13.200 E0.7480 F1800
G1 X0.000 Y13.600 F9000
G1 X20.000 Y13.600 E0.7480 F1800
G1 X0.000 Y14.000 F9000
G1 X20.000 Y14.000 E0.7480 F1800
G1 X0.000 Y14.400 F9000
G1 X20.000 Y14.400 E0.7480 F1800
G1 X0.000 Y14.800 F9000
G1 X20.000 Y14.800 E0.7480 F1800
G1 X0.000 Y15.200 F9000
G1 X20.000 Y15.200 E0.7480 F1800
G1 X0.000 Y15.600 F9000
G1 X20.000 Y15.600 E0.7480 F1800
G1 X0.000 Y16.000 F9000
G1 X20.000 Y16.000 E0.7480 F1800
G1 X0.000 Y16.400 F9000
G1 X20.000 Y16.400 E0.7480 F1800
G1 X0.000 Y16.800 F9000
G1 X20.000 Y16.800 E0.7480 F1800
G1 X0.000 Y17.200 F9000
G1 X20.000 Y17.200 E0.7480 F1800
G1 X0.000 Y17.600 F9000
G1 X20.000 Y17.600 E0.7480 F1800
G1 X0.000 Y18.000 F9000
G1 X20.000 Y18.000 E0.7480 F1800
G1 X0.000 Y18.400 F9000
G1 X20.000 Y18.400 E0.7480 F1800
G1 X0.000 Y18.800 F9000
G1 X20.000 Y18.800 E0.7480 F1800
G1 X0.000 Y19.200 F9000
G1 X20.000 Y19.200 E0.7480 F1800
G1 X0.000 Y19.600 F9000
G1 X20.000 Y19.600 E0.7480 F1800
G1 X0.000 Y20.000 F9000
G1 X20.000 Y20.000 E0.7480 F1800
;LAYER_CHANGE
;Z:0.40
G1 Z0.40 F7200
;TYPE:Internal solid infill
G1 X0.000 Y0.000 F9000
G1 X20.000 Y0.000 E0.7480 F1800
G1 X0.000 Y0.400 F9000
G1 X20.000 Y0.400 E0.7480 F1800
G1 X0.000 Y0.800 F9000
G1 X20.000 Y0.800 E0.7480 F1800
G1 X0.000 Y1.200 F9000
G1 X20.000 Y1.200 E0.7480 F1800
G1 X0.000 Y1.600 F9000
G1 X20.000 Y1.600 E0.7480 F1800
G1 X0.000 Y2.000 F9000
G1 X20.000 Y2.000 E0.7480 F1800
G1 X0.000 Y2.400 F9000
G1 X20.000 Y2.400 E0.7480 F1800
G1 X0.000 Y2.800 F9000
G1 X20.000 Y2.800 E0.7480 F1800
G1 X0.000 Y3.200 F9000
G1 X20.000 Y3.200 E0.7480 F1800
G1 X0.000 Y3.600 F9000
G1 X20.000 Y3.600 E0.7480 F1800
G1 X0.000 Y4.000 F9000
G1 X20.000 Y4.000 E0.7480 F1800
G1 X0.000 Y4.400 F9000
G1 X20.000 Y4.400 E0.7480 F1800
G1 X0.000 Y4.800 F9000
G1 X20.000 Y4.800 E0.7480 F1800
G1 X0.000 Y5.200 F9000
G1 X20.000 Y5.200 E0.7480 F1800
G1 X0.000 Y5.600 F9000
G1 X20.000 Y5.600 E0.7480 F1800
G1 X0.000 Y6.000 F9000
G1 X20.000 Y6.000 E0.7480 F1800
G1 X0.000 Y6.400 F9000
G1 X20.000 Y6.400 E0.7480 F1800
G1 X0.000 Y6.800 F9000
G1 X20.000 Y6.800 E0.7480 F1800
G1 X0.000 Y7.200 F9000
G1 X20.000 Y7.200 E0.7480 F1800
G1 X0.000 Y7.600 F9000
G1 X20.000 Y7.600 E0.7480 F1800
G1 X0.000 Y8.000 F9000
G1 X20.000 Y8.000 E0.7480 F1800
G1 X0.000 Y8.400 F9000
G1 X20.000 Y8.400 E0.7480 F1800
G1 X0.000 Y8.800 F9000
G1 X20.000 Y8.800 E0.7480 F1800
G1 X0.000 Y9.200 F9000
G1 X20.000 Y9.200 E0.7480 F1800
G1 X0.000 Y9.600 F9000
G1 X20.000 Y9.600 E0.7480 F1800
G1 X0.000 Y10.000 F9000
G1 X20.000 Y10.000 E0.7480 F1800
G1 X0.000 Y10.400 F9000
G1 X20.000 Y10.400 E0.7480 F1800
G1 X0.000 Y10.800 F9000
G1 X20.000 Y10.800 E0.7480 F1800
G1 X0.000 Y11.200 F9000
G1 X20.000 Y11.200 E0.7480 F1800
G1 X0.000 Y11.600 F9000
G1 X20.000 Y11.600 E0.7480 F1800
G1 X0.000 Y12.000 F9000
G1 X20.000 Y12.000 E0.7480 F1800
G1 X0.000 Y12.400 F9000
G1 X20.000 Y12.400 E0.7480 F1800
G1 X0.000 Y12.800 F9000
G1 X20.000 Y12.800 E0.7480 F1800
G1 X0.000 Y13.200 F9000
G1 X20.000 Y13.200 E0.7480 F1800
G1 X0.000 Y13.600 F9000
G1 X20.000 Y13.600 E0.7480 F1800
G1 X0.000 Y14.000 F9000
G1 X20.000 Y14.000 E0.7480 F1800
G1 X0.000 Y14.400 F9000
G1 X20.000 Y14.400 E0.7480 F1800
G1 X0.000 Y14.800 F9000
G1 X20.000 Y14.800 E0.7480 F1800
G1 X0.000 Y15.200 F9000
G1 X20.000 Y15.200 E0.7480 F1800
G1 X0.000 Y15.600 F9000
G1 X20.000 Y15.600 E0.7480 F1800
G1 X0.000 Y16.000 F9000
G1 X20.000 Y16.000 E0.7480 F1800
G1 X0.000 Y16.400 F9000
G1 X20.000 Y16.400 E0.7480 F1800
G1 X0.000 Y16.800 F9000
G1 X20.000 Y16.800 E0.7480 F1800
G1 X0.000 Y17.200 F9000
G1 X20.000 Y17.200 E0.7480 F1800
G1 X0.000 Y17.600 F9000
G1 X20.000 Y17.600 E0.7480 F1800
G1 X0.000 Y18.000 F9000
G1 X20.000 Y18.000 E0.7480 F1800
G1 X0.000 Y18.400 F9000
G1 X20.000 Y18.400 E0.7480 F1800
G1 X0.000 Y18.800 F9000
G1 X20.000 Y18.800 E0.7480 F1800
G1 X0.000 Y19.200 F9000
G1 X20.000 Y19.200 E0.7480 F1800
G1 X0.000 Y19.600 F9000
G1 X20.000 Y19.600 E0.7480 F1800
G1 X0.000 Y20.000 F9000
G1 X20.000 Y20.000 E0.7480 F1800
;LAYER_CHANGE
;Z:0.60
G1 Z0.60 F7200
;TYPE:Internal solid infill
G1 X0.000 Y0.000 F9000
G1 X20.000 Y0.000 E0.7480 F1800
G1 X0.000 Y0.400 F9000
G1 X20.000 Y0.400 E0.7480 F1800
G1 X0.000 Y0.800 F9000
G1 X20.000 Y0.800 E0.7480 F1800
G1 X0.000 Y1.200 F9000
G1 X20.000 Y1.200 E0.7480 F1800
G1 X0.000 Y1.600 F9000
G1 X20.000 Y1.600 E0.7480 F1800
G1 X0.000 Y2.000 F9000
G1 X20.000 Y2.000 E0.7480 F1800
G1 X0.000 Y2.400 F9000
G1 X20.000 Y2.400 E0.7480 F1800
G1 X0.000 Y2.800 F9000
G1 X20.000 Y2.800 E0.7480 F1800
G1 X0.000 Y3.200 F9000
G1 X20.000 Y3.200 E0.7480 F1800
G1 X0.000 Y3.600 F9000
G1 X20.000 Y3.600 E0.7480 F1800
G1 X0.000 Y4.000 F9000
G1 X20.000 Y4.000 E0.7480 F1800
G1 X0.000 Y4.400 F9000
G1 X20.000 Y4.400 E0.7480 F1800
G1 X0.000 Y4.800 F9000
G1 X20.000 Y4.800 E0.7480 F1800
G1 X0.000 Y5.200 F9000
G1 X20.000 Y5.200 E0.7480 F1800
G1 X0.000 Y5.600 F9000
G1 X20.000 Y5.600 E0.7480 F1800
G1 X0.000 Y6.000 F9000
G1 X20.000 Y6.000 E0.7480 F1800
G1 X0.000 Y6.400 F9000
G1 X20.000 Y6.400 E0.7480 F1800
G1 X0.000 Y6.800 F9000
G1 X20.000 Y6.800 E0.7480 F1800
G1 X0.000 Y7.200 F9000
G1 X20.000 Y7.200 E0.7480 F1800
G1 X0.000 Y7.600 F9000
G1 X20.000 Y7.600 E0.7480 F1800
G1 X0.000 Y8.000 F9000
G1 X20.000 Y8.000 E0.7480 F1800
G1 X0.000 Y8.400 F9000
G1 X20.000 Y8.400 E0.7480 F1800
G1 X0.000 Y8.800 F9000
G1 X20.000 Y8.800 E0.7480 F1800
G1 X0.000 Y9.200 F9000
G1 X20.000 Y9.200 E0.7480 F1800
G1 X0.000 Y9.600 F9000
G1 X20.000 Y9.600 E0.7480 F1800
G1 X0.000 Y10.000 F9000
G1 X20.000 Y10.000 E0.7480 F1800
G1 X0.000 Y10.400 F9000
G1 X20.000 Y10.400 E0.7480 F1800
G1 X0.000 Y10.800 F9000
G1 X20.000 Y10.800 E0.7480 F1800
G1 X0.000 Y11.200 F9000
G1 X20.000 Y11.200 E0.7480 F1800
G1 X0.000 Y11.600 F9000
G1 X20.000 Y11.600 E0.7480 F1800
G1 X0.000 Y12.000 F9000
G1 X20.000 Y12.000 E0.7480 F1800
G1 X0.000 Y12.400 F9000
G1 X20.000 Y12.400 E0.7480 F1800
G1 X0.000 Y12.800 F9000
G1 X20.000 Y12.800 E0.7480 F1800
G1 X0.000 Y13.200 F9000
G1 X20.000 Y13.200 E0.7480 F1800
G1 X0.000 Y13.600 F9000
G1 X20.000 Y13.600 E0.7480 F1800
G1 X0.000 Y14.000 F9000
G1 X20.000 Y14.000 E0.7480 F1800
G1 X0.000 Y14.400 F9000
G1 X20.000 Y14.400 E0.7480 F1800
G1 X0.000 Y14.800 F9000
G1 X20.000 Y14.800 E0.7480 F1800
G1 X0.000 Y15.200 F9000
G1 X20.000 Y15.200 E0.7480 F1800
G1 X0.000 Y15.600 F9000
G1 X20.000 Y15.600 E0.7480 F1800
G1 X0.000 Y16.000 F9000
G1 X20.000 Y16.000 E0.7480 F1800
G1 X0.000 Y16.400 F9000
G1 X20.000 Y16.400 E0.7480 F1800
G1 X0.000 Y16.800 F9000
G1 X20.000 Y16.800 E0.7480 F1800
G1 X0.000 Y17.200 F9000
G1 X20.000 Y17.200 E0.7480 F1800
G1 X0.000 Y17.600 F9000
G1 X20.000 Y17.600 E0.7480 F1800
G1 X0.000 Y18.000 F9000
G1 X20.000 Y18.000 E0.7480 F1800
G1 X0.000 Y18.400 F9000
G1 X20.000 Y18.400 E0.7480 F1800
G1 X0.000 Y18.800 F9000
G1 X20.000 Y18.800 E0.7480 F1800
G1 X0.000 Y19.200 F9000
G1 X20.000 Y19.200 E0.7480 F1800
G1 X0.000 Y19.600 F9000
G1 X20.000 Y19.600 E0.7480 F1800
G1 X0.000 Y20.000 F9000
G1 X20.000 Y20.000 E0.7480 F1800
