; Fixture: two solid 14 x 14 mm plates joined by a 4 mm wide, 6 mm
; long isthmus (x 14..20, y 5.2..8.8), 3 layers of 0.2 mm.
; Exercises: tap-passes / drag-fails at the SAME point. A tap at
; (7,7) clears every criterion -- one island, ~360 mm^2 of bed
; contact, 7 mm of edge margin. A 12 mm drag from (7,7) along +X has
; to cross the isthmus, where the material narrows to ~2 mm of
; half-width, so the clear run ends at x ~ 11.8 (where the distance
; to the re-entrant corner at (14, 9.03) falls to the 3 mm margin).
G90
M83
G92 E0
;LAYER_CHANGE
;Z:0.20
G1 Z0.20 F7200
;TYPE:Internal solid infill
G1 X0.000 Y0.000 F9000
G1 X14.000 Y0.000 E0.5236 F1800
G1 X20.000 Y0.000 F9000
G1 X34.000 Y0.000 E0.5236 F1800
G1 X0.000 Y0.400 F9000
G1 X14.000 Y0.400 E0.5236 F1800
G1 X20.000 Y0.400 F9000
G1 X34.000 Y0.400 E0.5236 F1800
G1 X0.000 Y0.800 F9000
G1 X14.000 Y0.800 E0.5236 F1800
G1 X20.000 Y0.800 F9000
G1 X34.000 Y0.800 E0.5236 F1800
G1 X0.000 Y1.200 F9000
G1 X14.000 Y1.200 E0.5236 F1800
G1 X20.000 Y1.200 F9000
G1 X34.000 Y1.200 E0.5236 F1800
G1 X0.000 Y1.600 F9000
G1 X14.000 Y1.600 E0.5236 F1800
G1 X20.000 Y1.600 F9000
G1 X34.000 Y1.600 E0.5236 F1800
G1 X0.000 Y2.000 F9000
G1 X14.000 Y2.000 E0.5236 F1800
G1 X20.000 Y2.000 F9000
G1 X34.000 Y2.000 E0.5236 F1800
G1 X0.000 Y2.400 F9000
G1 X14.000 Y2.400 E0.5236 F1800
G1 X20.000 Y2.400 F9000
G1 X34.000 Y2.400 E0.5236 F1800
G1 X0.000 Y2.800 F9000
G1 X14.000 Y2.800 E0.5236 F1800
G1 X20.000 Y2.800 F9000
G1 X34.000 Y2.800 E0.5236 F1800
G1 X0.000 Y3.200 F9000
G1 X14.000 Y3.200 E0.5236 F1800
G1 X20.000 Y3.200 F9000
G1 X34.000 Y3.200 E0.5236 F1800
G1 X0.000 Y3.600 F9000
G1 X14.000 Y3.600 E0.5236 F1800
G1 X20.000 Y3.600 F9000
G1 X34.000 Y3.600 E0.5236 F1800
G1 X0.000 Y4.000 F9000
G1 X14.000 Y4.000 E0.5236 F1800
G1 X20.000 Y4.000 F9000
G1 X34.000 Y4.000 E0.5236 F1800
G1 X0.000 Y4.400 F9000
G1 X14.000 Y4.400 E0.5236 F1800
G1 X20.000 Y4.400 F9000
G1 X34.000 Y4.400 E0.5236 F1800
G1 X0.000 Y4.800 F9000
G1 X14.000 Y4.800 E0.5236 F1800
G1 X20.000 Y4.800 F9000
G1 X34.000 Y4.800 E0.5236 F1800
G1 X0.000 Y5.200 F9000
G1 X34.000 Y5.200 E1.2716 F1800
G1 X0.000 Y5.600 F9000
G1 X34.000 Y5.600 E1.2716 F1800
G1 X0.000 Y6.000 F9000
G1 X34.000 Y6.000 E1.2716 F1800
G1 X0.000 Y6.400 F9000
G1 X34.000 Y6.400 E1.2716 F1800
G1 X0.000 Y6.800 F9000
G1 X34.000 Y6.800 E1.2716 F1800
G1 X0.000 Y7.200 F9000
G1 X34.000 Y7.200 E1.2716 F1800
G1 X0.000 Y7.600 F9000
G1 X34.000 Y7.600 E1.2716 F1800
G1 X0.000 Y8.000 F9000
G1 X34.000 Y8.000 E1.2716 F1800
G1 X0.000 Y8.400 F9000
G1 X34.000 Y8.400 E1.2716 F1800
G1 X0.000 Y8.800 F9000
G1 X34.000 Y8.800 E1.2716 F1800
G1 X0.000 Y9.200 F9000
G1 X14.000 Y9.200 E0.5236 F1800
G1 X20.000 Y9.200 F9000
G1 X34.000 Y9.200 E0.5236 F1800
G1 X0.000 Y9.600 F9000
G1 X14.000 Y9.600 E0.5236 F1800
G1 X20.000 Y9.600 F9000
G1 X34.000 Y9.600 E0.5236 F1800
G1 X0.000 Y10.000 F9000
G1 X14.000 Y10.000 E0.5236 F1800
G1 X20.000 Y10.000 F9000
G1 X34.000 Y10.000 E0.5236 F1800
G1 X0.000 Y10.400 F9000
G1 X14.000 Y10.400 E0.5236 F1800
G1 X20.000 Y10.400 F9000
G1 X34.000 Y10.400 E0.5236 F1800
G1 X0.000 Y10.800 F9000
G1 X14.000 Y10.800 E0.5236 F1800
G1 X20.000 Y10.800 F9000
G1 X34.000 Y10.800 E0.5236 F1800
G1 X0.000 Y11.200 F9000
G1 X14.000 Y11.200 E0.5236 F1800
G1 X20.000 Y11.200 F9000
G1 X34.000 Y11.200 E0.5236 F1800
G1 X0.000 Y11.600 F9000
G1 X14.000 Y11.600 E0.5236 F1800
G1 X20.000 Y11.600 F9000
G1 X34.000 Y11.600 E0.5236 F1800
G1 X0.000 Y12.000 F9000
G1 X14.000 Y12.000 E0.5236 F1800
G1 X20.000 Y12.000 F9000
G1 X34.000 Y12.000 E0.5236 F1800
G1 X0.000 Y12.400 F9000
G1 X14.000 Y12.400 E0.5236 F1800
G1 X20.000 Y12.400 F9000
G1 X34.000 Y12.400 E0.5236 F1800
G1 X0.000 Y12.800 F9000
G1 X14.000 Y12.800 E0.5236 F1800
G1 X20.000 Y12.800 F9000
G1 X34.000 Y12.800 E0.5236 F1800
G1 X0.000 Y13.200 F9000
G1 X14.000 Y13.200 E0.5236 F1800
G1 X20.000 Y13.200 F9000
G1 X34.000 Y13.200 E0.5236 F1800
G1 X0.000 Y13.600 F9000
G1 X14.000 Y13.600 E0.5236 F1800
G1 X20.000 Y13.600 F9000
G1 X34.000 Y13.600 E0.5236 F1800
G1 X0.000 Y14.000 F9000
G1 X14.000 Y14.000 E0.5236 F1800
G1 X20.000 Y14.000 F9000
G1 X34.000 Y14.000 E0.5236 F1800
;LAYER_CHANGE
;Z:0.40
G1 Z0.40 F7200
;TYPE:Internal solid infill
G1 X0.000 Y0.000 F9000
G1 X14.000 Y0.000 E0.5236 F1800
G1 X20.000 Y0.000 F9000
G1 X34.000 Y0.000 E0.5236 F1800
G1 X0.000 Y0.400 F9000
G1 X14.000 Y0.400 E0.5236 F1800
G1 X20.000 Y0.400 F9000
G1 X34.000 Y0.400 E0.5236 F1800
G1 X0.000 Y0.800 F9000
G1 X14.000 Y0.800 E0.5236 F1800
G1 X20.000 Y0.800 F9000
G1 X34.000 Y0.800 E0.5236 F1800
G1 X0.000 Y1.200 F9000
G1 X14.000 Y1.200 E0.5236 F1800
G1 X20.000 Y1.200 F9000
G1 X34.000 Y1.200 E0.5236 F1800
G1 X0.000 Y1.600 F9000
G1 X14.000 Y1.600 E0.5236 F1800
G1 X20.000 Y1.600 F9000
G1 X34.000 Y1.600 E0.5236 F1800
G1 X0.000 Y2.000 F9000
G1 X14.000 Y2.000 E0.5236 F1800
G1 X20.000 Y2.000 F9000
G1 X34.000 Y2.000 E0.5236 F1800
G1 X0.000 Y2.400 F9000
G1 X14.000 Y2.400 E0.5236 F1800
G1 X20.000 Y2.400 F9000
G1 X34.000 Y2.400 E0.5236 F1800
G1 X0.000 Y2.800 F9000
G1 X14.000 Y2.800 E0.5236 F1800
G1 X20.000 Y2.800 F9000
G1 X34.000 Y2.800 E0.5236 F1800
G1 X0.000 Y3.200 F9000
G1 X14.000 Y3.200 E0.5236 F1800
G1 X20.000 Y3.200 F9000
G1 X34.000 Y3.200 E0.5236 F1800
G1 X0.000 Y3.600 F9000
G1 X14.000 Y3.600 E0.5236 F1800
G1 X20.000 Y3.600 F9000
G1 X34.000 Y3.600 E0.5236 F1800
G1 X0.000 Y4.000 F9000
G1 X14.000 Y4.000 E0.5236 F1800
G1 X20.000 Y4.000 F9000
G1 X34.000 Y4.000 E0.5236 F1800
G1 X0.000 Y4.400 F9000
G1 X14.000 Y4.400 E0.5236 F1800
G1 X20.000 Y4.400 F9000
G1 X34.000 Y4.400 E0.5236 F1800
G1 X0.000 Y4.800 F9000
G1 X14.000 Y4.800 E0.5236 F1800
G1 X20.000 Y4.800 F9000
G1 X34.000 Y4.800 E0.5236 F1800
G1 X0.000 Y5.200 F9000
G1 X34.000 Y5.200 E1.2716 F1800
G1 X0.000 Y5.600 F9000
G1 X34.000 Y5.600 E1.2716 F1800
G1 X0.000 Y6.000 F9000
G1 X34.000 Y6.000 E1.2716 F1800
G1 X0.000 Y6.400 F9000
G1 X34.000 Y6.400 E1.2716 F1800
G1 X0.000 Y6.800 F9000
G1 X34.000 Y6.800 E1.2716 F1800
G1 X0.000 Y7.200 F9000
G1 X34.000 Y7.200 E1.2716 F1800
G1 X0.000 Y7.600 F9000
G1 X34.000 Y7.600 E1.2716 F1800
G1 X0.000 Y8.000 F9000
G1 X34.000 Y8.000 E1.2716 F1800
G1 X0.000 Y8.400 F9000
G1 X34.000 Y8.400 E1.2716 F1800
G1 X0.000 Y8.800 F9000
G1 X34.000 Y8.800 E1.2716 F1800
G1 X0.000 Y9.200 F9000
G1 X14.000 Y9.200 E0.5236 F1800
G1 X20.000 Y9.200 F9000
G1 X34.000 Y9.200 E0.5236 F1800
G1 X0.000 Y9.600 F9000
G1 X14.000 Y9.600 E0.5236 F1800
G1 X20.000 Y9.600 F9000
G1 X34.000 Y9.600 E0.5236 F1800
G1 X0.000 Y10.000 F9000
G1 X14.000 Y10.000 E0.5236 F1800
G1 X20.000 Y10.000 F9000
G1 X34.000 Y10.000 E0.5236 F1800
G1 X0.000 Y10.400 F9000
G1 X14.000 Y10.400 E0.5236 F1800
G1 X20.000 Y10.400 F9000
G1 X34.000 Y10.400 E0.5236 F1800
G1 X0.000 Y10.800 F9000
G1 X14.000 Y10.800 E0.5236 F1800
G1 X20.000 Y10.800 F9000
G1 X34.000 Y10.800 E0.5236 F1800
G1 X0.000 Y11.200 F9000
G1 X14.000 Y11.200 E0.5236 F1800
G1 X20.000 Y11.200 F9000
G1 X34.000 Y11.200 E0.5236 F1800
G1 X0.000 Y11.600 F9000
G1 X14.000 Y11.600 E0.5236 F1800
G1 X20.000 Y11.600 F9000
G1 X34.000 Y11.600 E0.5236 F1800
G1 X0.000 Y12.000 F9000
G1 X14.000 Y12.000 E0.5236 F1800
G1 X20.000 Y12.000 F9000
G1 X34.000 Y12.000 E0.5236 F1800
G1 X0.000 Y12.400 F9000
G1 X14.000 Y12.400 E0.5236 F1800
G1 X20.000 Y12.400 F9000
G1 X34.000 Y12.400 E0.5236 F1800
G1 X0.000 Y12.800 F9000
G1 X14.000 Y12.800 E0.5236 F1800
G1 X20.000 Y12.800 F9000
G1 X34.000 Y12.800 E0.5236 F1800
G1 X0.000 Y13.200 F9000
G1 X14.000 Y13.200 E0.5236 F1800
G1 X20.000 Y13.200 F9000
G1 X34.000 Y13.200 E0.5236 F1800
G1 X0.000 Y13.600 F9000
G1 X14.000 Y13.600 E0.5236 F1800
G1 X20.000 Y13.600 F9000
G1 X34.000 Y13.600 E0.5236 F1800
G1 X0.000 Y14.000 F9000
G1 X14.000 Y14.000 E0.5236 F1800
G1 X20.000 Y14.000 F9000
G1 X34.000 Y14.000 E0.5236 F1800
;LAYER_CHANGE
;Z:0.60
G1 Z0.60 F7200
;TYPE:Internal solid infill
G1 X0.000 Y0.000 F9000
G1 X14.000 Y0.000 E0.5236 F1800
G1 X20.000 Y0.000 F9000
G1 X34.000 Y0.000 E0.5236 F1800
G1 X0.000 Y0.400 F9000
G1 X14.000 Y0.400 E0.5236 F1800
G1 X20.000 Y0.400 F9000
G1 X34.000 Y0.400 E0.5236 F1800
G1 X0.000 Y0.800 F9000
G1 X14.000 Y0.800 E0.5236 F1800
G1 X20.000 Y0.800 F9000
G1 X34.000 Y0.800 E0.5236 F1800
G1 X0.000 Y1.200 F9000
G1 X14.000 Y1.200 E0.5236 F1800
G1 X20.000 Y1.200 F9000
G1 X34.000 Y1.200 E0.5236 F1800
G1 X0.000 Y1.600 F9000
G1 X14.000 Y1.600 E0.5236 F1800
G1 X20.000 Y1.600 F9000
G1 X34.000 Y1.600 E0.5236 F1800
G1 X0.000 Y2.000 F9000
G1 X14.000 Y2.000 E0.5236 F1800
G1 X20.000 Y2.000 F9000
G1 X34.000 Y2.000 E0.5236 F1800
G1 X0.000 Y2.400 F9000
G1 X14.000 Y2.400 E0.5236 F1800
G1 X20.000 Y2.400 F9000
G1 X34.000 Y2.400 E0.5236 F1800
G1 X0.000 Y2.800 F9000
G1 X14.000 Y2.800 E0.5236 F1800
G1 X20.000 Y2.800 F9000
G1 X34.000 Y2.800 E0.5236 F1800
G1 X0.000 Y3.200 F9000
G1 X14.000 Y3.200 E0.5236 F1800
G1 X20.000 Y3.200 F9000
G1 X34.000 Y3.200 E0.5236 F1800
G1 X0.000 Y3.600 F9000
G1 X14.000 Y3.600 E0.5236 F1800
G1 X20.000 Y3.600 F9000
G1 X34.000 Y3.600 E0.5236 F1800
G1 X0.000 Y4.000 F9000
G1 X14.000 Y4.000 E0.5236 F1800
G1 X20.000 Y4.000 F9000
G1 X34.000 Y4.000 E0.5236 F1800
G1 X0.000 Y4.400 F9000
G1 X14.000 Y4.400 E0.5236 F1800
G1 X20.000 Y4.400 F9000
G1 X34.000 Y4.400 E0.5236 F1800
G1 X0.000 Y4.800 F9000
G1 X14.000 Y4.800 E0.5236 F1800
G1 X20.000 Y4.800 F9000
G1 X34.000 Y4.800 E0.5236 F1800
G1 X0.000 Y5.200 F9000
G1 X34.000 Y5.200 E1.2716 F1800
G1 X0.000 Y5.600 F9000
G1 X34.000 Y5.600 E1.2716 F1800
G1 X0.000 Y6.000 F9000
G1 X34.000 Y6.000 E1.2716 F1800
G1 X0.000 Y6.400 F9000
G1 X34.000 Y6.400 E1.2716 F1800
G1 X0.000 Y6.800 F9000
G1 X34.000 Y6.800 E1.2716 F1800
G1 X0.000 Y7.200 F9000
G1 X34.000 Y7.200 E1.2716 F1800
G1 X0.000 Y7.600 F9000
G1 X34.000 Y7.600 E1.2716 F1800
G1 X0.000 Y8.000 F9000
G1 X34.000 Y8.000 E1.2716 F1800
G1 X0.000 Y8.400 F9000
G1 X34.000 Y8.400 E1.2716 F1800
G1 X0.000 Y8.800 F9000
G1 X34.000 Y8.800 E1.2716 F1800
G1 X0.000 Y9.200 F9000
G1 X14.000 Y9.200 E0.5236 F1800
G1 X20.000 Y9.200 F9000
G1 X34.000 Y9.200 E0.5236 F1800
G1 X0.000 Y9.600 F9000
G1 X14.000 Y9.600 E0.5236 F1800
G1 X20.000 Y9.600 F9000
G1 X34.000 Y9.600 E0.5236 F1800
G1 X0.000 Y10.000 F9000
G1 X14.000 Y10.000 E0.5236 F1800
G1 X20.000 Y10.000 F9000
G1 X34.000 Y10.000 E0.5236 F1800
G1 X0.000 Y10.400 F9000
G1 X14.000 Y10.400 E0.5236 F1800
G1 X20.000 Y10.400 F9000
G1 X34.000 Y10.400 E0.5236 F1800
G1 X0.000 Y10.800 F9000
G1 X14.000 Y10.800 E0.5236 F1800
G1 X20.000 Y10.800 F9000
G1 X34.000 Y10.800 E0.5236 F1800
G1 X0.000 Y11.200 F9000
G1 X14.000 Y11.200 E0.5236 F1800
G1 X20.000 Y11.200 F9000
G1 X34.000 Y11.200 E0.5236 F1800
G1 X0.000 Y11.600 F9000
G1 X14.000 Y11.600 E0.5236 F1800
G1 X20.000 Y11.600 F9000
G1 X34.000 Y11.600 E0.5236 F1800
G1 X0.000 Y12.000 F9000
G1 X14.000 Y12.000 E0.5236 F1800
G1 X20.000 Y12.000 F9000
G1 X34.000 Y12.000 E0.5236 F1800
G1 X0.000 Y12.400 F9000
G1 X14.000 Y12.400 E0.5236 F1800
G1 X20.000 Y12.400 F9000
G1 X34.000 Y12.400 E0.5236 F1800
G1 X0.000 Y12.800 F9000
G1 X14.000 Y12.800 E0.5236 F1800
G1 X20.000 Y12.800 F9000
G1 X34.000 Y12.800 E0.5236 F1800
G1 X0.000 Y13.200 F9000
G1 X14.000 Y13.200 E0.5236 F1800
G1 X20.000 Y13.200 F9000
G1 X34.000 Y13.200 E0.5236 F1800
G1 X0.000 Y13.600 F9000
G1 X14.000 Y13.600 E0.5236 F1800
G1 X20.000 Y13.600 F9000
G1 X34.000 Y13.600 E0.5236 F1800
G1 X0.000 Y14.000 F9000
G1 X14.000 Y14.000 E0.5236 F1800
G1 X20.000 Y14.000 F9000
G1 X34.000 Y14.000 E0.5236 F1800
