; Fixture: a 6 x 6 mm base (layers 0-1) carrying a 20 x 20 mm flange
; (layers 2-3), all 0.2 mm layers, base centred under the flange.
; Exercises: why the footprint has to be traced down the stack. The
; layer-2 island measures ~344 mm^2 on its own -- comfortably over
; the 100 mm^2 bar -- but the material that actually holds it to the
; bed is the 6 x 6 base, ~31 mm^2, so bed adhesion must fail. Judging
; the candidate by its own layer would call this safe.
G90
M83
G92 E0
;LAYER_CHANGE
;Z:0.20
G1 Z0.20 F7200
;TYPE:Internal solid infill
G1 X7.000 Y7.000 F9000
G1 X13.000 Y7.000 E0.2244 F1800
G1 X7.000 Y7.400 F9000
G1 X13.000 Y7.400 E0.2244 F1800
G1 X7.000 Y7.800 F9000
G1 X13.000 Y7.800 E0.2244 F1800
G1 X7.000 Y8.200 F9000
G1 X13.000 Y8.200 E0.2244 F1800
G1 X7.000 Y8.600 F9000
G1 X13.000 Y8.600 E0.2244 F1800
G1 X7.000 Y9.000 F9000
G1 X13.000 Y9.000 E0.2244 F1800
G1 X7.000 Y9.400 F9000
G1 X13.000 Y9.400 E0.2244 F1800
G1 X7.000 Y9.800 F9000
G1 X13.000 Y9.800 E0.2244 F1800
G1 X7.000 Y10.200 F9000
G1 X13.000 Y10.200 E0.2244 F1800
G1 X7.000 Y10.600 F9000
G1 X13.000 Y10.600 E0.2244 F1800
G1 X7.000 Y11.000 F9000
G1 X13.000 Y11.000 E0.2244 F1800
G1 X7.000 Y11.400 F9000
G1 X13.000 Y11.400 E0.2244 F1800
G1 X7.000 Y11.800 F9000
G1 X13.000 Y11.800 E0.2244 F1800
G1 X7.000 Y12.200 F9000
G1 X13.000 Y12.200 E0.2244 F1800
G1 X7.000 Y12.600 F9000
G1 X13.000 Y12.600 E0.2244 F1800
G1 X7.000 Y13.000 F9000
G1 X13.000 Y13.000 E0.2244 F1800
;LAYER_CHANGE
;Z:0.40
G1 Z0.40 F7200
;TYPE:Internal solid infill
G1 X7.000 Y7.000 F9000
G1 X13.000 Y7.000 E0.2244 F1800
G1 X7.000 Y7.400 F9000
G1 X13.000 Y7.400 E0.2244 F1800
G1 X7.000 Y7.800 F9000
G1 X13.000 Y7.800 E0.2244 F1800
G1 X7.000 Y8.200 F9000
G1 X13.000 Y8.200 E0.2244 F1800
G1 X7.000 Y8.600 F9000
G1 X13.000 Y8.600 E0.2244 F1800
G1 X7.000 Y9.000 F9000
G1 X13.000 Y9.000 E0.2244 F1800
G1 X7.000 Y9.400 F9000
G1 X13.000 Y9.400 E0.2244 F1800
G1 X7.000 Y9.800 F9000
G1 X13.000 Y9.800 E0.2244 F1800
G1 X7.000 Y10.200 F9000
G1 X13.000 Y10.200 E0.2244 F1800
G1 X7.000 Y10.600 F9000
G1 X13.000 Y10.600 E0.2244 F1800
G1 X7.000 Y11.000 F9000
G1 X13.000 Y11.000 E0.2244 F1800
G1 X7.000 Y11.400 F9000
G1 X13.000 Y11.400 E0.2244 F1800
G1 X7.000 Y11.800 F9000
G1 X13.000 Y11.800 E0.2244 F1800
G1 X7.000 Y12.200 F9000
G1 X13.000 Y12.200 E0.2244 F1800
G1 X7.000 Y12.600 F9000
G1 X13.000 Y12.600 E0.2244 F1800
G1 X7.000 Y13.000 F9000
G1 X13.000 Y13.000 E0.2244 F1800
;LAYER_CHANGE
;Z:0.60
G1 Z0.60 F7200
;TYPE:Internal solid infill
G1 X0.000 Y0.000 F9000
G1 X20.000 Y0.000 E0.7480 F1800
G1 X0.000 Y0.400 F9000
G1 X20.000 Y0.400 E0.7480 F1800
G1 X0.000 Y0.800 F9000
G1 X20.000 Y0.800 E0.7480 F1800
G1 X0.000 Y1.200 F9000
G1 X20.000 Y1.200 E0.7480 F1800
G1 X0.000 Y1.600 F9000
G1 X20.000 Y1.600 E0.7480 F1800
G1 X0.000 Y2.000 F9000
G1 X20.000 Y2.000 E0.7480 F1800
G1 X0.000 Y2.400 F9000
G1 X20.000 Y2.400 E0.7480 F1800
G1 X0.000 Y2.800 F9000
G1 X20.000 Y2.800 E0.7480 F1800
G1 X0.000 Y3.200 F9000
G1 X20.000 Y3.200 E0.7480 F1800
G1 X0.000 Y3.600 F9000
G1 X20.000 Y3.600 E0.7480 F1800
G1 X0.000 Y4.000 F9000
G1 X20.000 Y4.000 E0.7480 F1800
G1 X0.000 Y4.400 F9000
G1 X20.000 Y4.400 E0.7480 F1800
G1 X0.000 Y4.800 F9000
G1 X20.000 Y4.800 E0.7480 F1800
G1 X0.000 Y5.200 F9000
G1 X20.000 Y5.200 E0.7480 F1800
G1 X0.000 Y5.600 F9000
G1 X20.000 Y5.600 E0.7480 F1800
G1 X0.000 Y6.000 F9000
G1 X20.000 Y6.000 E0.7480 F1800
G1 X0.000 Y6.400 F9000
G1 X20.000 Y6.400 E0.7480 F1800
G1 X0.000 Y6.800 F9000
G1 X20.000 Y6.800 E0.7480 F1800
G1 X0.000 Y7.200 F9000
G1 X20.000 Y7.200 E0.7480 F1800
G1 X0.000 Y7.600 F9000
G1 X20.000 Y7.600 E0.7480 F1800
G1 X0.000 Y8.000 F9000
G1 X20.000 Y8.000 E0.7480 F1800
G1 X0.000 Y8.400 F9000
G1 X20.000 Y8.400 E0.7480 F1800
G1 X0.000 Y8.800 F9000
G1 X20.000 Y8.800 E0.7480 F1800
G1 X0.000 Y9.200 F9000
G1 X20.000 Y9.200 E0.7480 F1800
G1 X0.000 Y9.600 F9000
G1 X20.000 Y9.600 E0.7480 F1800
G1 X0.000 Y10.000 F9000
G1 X20.000 Y10.000 E0.7480 F1800
G1 X0.000 Y10.400 F9000
G1 X20.000 Y10.400 E0.7480 F1800
G1 X0.000 Y10.800 F9000
G1 X20.000 Y10.800 E0.7480 F1800
G1 X0.000 Y11.200 F9000
G1 X20.000 Y11.200 E0.7480 F1800
G1 X0.000 Y11.600 F9000
G1 X20.000 Y11.600 E0.7480 F1800
G1 X0.000 Y12.000 F9000
G1 X20.000 Y12.000 E0.7480 F1800
G1 X0.000 Y12.400 F9000
G1 X20.000 Y12.400 E0.7480 F1800
G1 X0.000 Y12.800 F9000
G1 X20.000 Y12.800 E0.7480 F1800
G1 X0.000 Y13.200 F9000
G1 X20.000 Y13.200 E0.7480 F1800
G1 X0.000 Y13.600 F9000
G1 X20.000 Y13.600 E0.7480 F1800
G1 X0.000 Y14.000 F9000
G1 X20.000 Y14.000 E0.7480 F1800
G1 X0.000 Y14.400 F9000
G1 X20.000 Y14.400 E0.7480 F1800
G1 X0.000 Y14.800 F9000
G1 X20.000 Y14.800 E0.7480 F1800
G1 X0.000 Y15.200 F9000
G1 X20.000 Y15.200 E0.7480 F1800
G1 X0.000 Y15.600 F9000
G1 X20.000 Y15.600 E0.7480 F1800
G1 X0.000 Y16.000 F9000
G1 X20.000 Y16.000 E0.7480 F1800
G1 X0.000 Y16.400 F9000
G1 X20.000 Y16.400 E0.7480 F1800
G1 X0.000 Y16.800 F9000
G1 X20.000 Y16.800 E0.7480 F1800
G1 X0.000 Y17.200 F9000
G1 X20.000 Y17.200 E0.7480 F1800
G1 X0.000 Y17.600 F9000
G1 X20.000 Y17.600 E0.7480 F1800
G1 X0.000 Y18.000 F9000
G1 X20.000 Y18.000 E0.7480 F1800
G1 X0.000 Y18.400 F9000
G1 X20.000 Y18.400 E0.7480 F1800
G1 X0.000 Y18.800 F9000
G1 X20.000 Y18.800 E0.7480 F1800
G1 X0.000 Y19.200 F9000
G1 X20.000 Y19.200 E0.7480 F1800
G1 X0.000 Y19.600 F9000
G1 X20.000 Y19.600 E0.7480 F1800
G1 X0.000 Y20.000 F9000
G1 X20.000 Y20.000 E0.7480 F1800
;LAYER_CHANGE
;Z:0.80
G1 Z0.80 F7200
;TYPE:Internal solid infill
G1 X0.000 Y0.000 F9000
G1 X20.000 Y0.000 E0.7480 F1800
G1 X0.000 Y0.400 F9000
G1 X20.000 Y0.400 E0.7480 F1800
G1 X0.000 Y0.800 F9000
G1 X20.000 Y0.800 E0.7480 F1800
G1 X0.000 Y1.200 F9000
G1 X20.000 Y1.200 E0.7480 F1800
G1 X0.000 Y1.600 F9000
G1 X20.000 Y1.600 E0.7480 F1800
G1 X0.000 Y2.000 F9000
G1 X20.000 Y2.000 E0.7480 F1800
G1 X0.000 Y2.400 F9000
G1 X20.000 Y2.400 E0.7480 F1800
G1 X0.000 Y2.800 F9000
G1 X20.000 Y2.800 E0.7480 F1800
G1 X0.000 Y3.200 F9000
G1 X20.000 Y3.200 E0.7480 F1800
G1 X0.000 Y3.600 F9000
G1 X20.000 Y3.600 E0.7480 F1800
G1 X0.000 Y4.000 F9000
G1 X20.000 Y4.000 E0.7480 F1800
G1 X0.000 Y4.400 F9000
G1 X20.000 Y4.400 E0.7480 F1800
G1 X0.000 Y4.800 F9000
G1 X20.000 Y4.800 E0.7480 F1800
G1 X0.000 Y5.200 F9000
G1 X20.000 Y5.200 E0.7480 F1800
G1 X0.000 Y5.600 F9000
G1 X20.000 Y5.600 E0.7480 F1800
G1 X0.000 Y6.000 F9000
G1 X20.000 Y6.000 E0.7480 F1800
G1 X0.000 Y6.400 F9000
G1 X20.000 Y6.400 E0.7480 F1800
G1 X0.000 Y6.800 F9000
G1 X20.000 Y6.800 E0.7480 F1800
G1 X0.000 Y7.200 F9000
G1 X20.000 Y7.200 E0.7480 F1800
G1 X0.000 Y7.600 F9000
G1 X20.000 Y7.600 E0.7480 F1800
G1 X0.000 Y8.000 F9000
G1 X20.000 Y8.000 E0.7480 F1800
G1 X0.000 Y8.400 F9000
G1 X20.000 Y8.400 E0.7480 F1800
G1 X0.000 Y8.800 F9000
G1 X20.000 Y8.800 E0.7480 F1800
G1 X0.000 Y9.200 F9000
G1 X20.000 Y9.200 E0.7480 F1800
G1 X0.000 Y9.600 F9000
G1 X20.000 Y9.600 E0.7480 F1800
G1 X0.000 Y10.000 F9000
G1 X20.000 Y10.000 E0.7480 F1800
G1 X0.000 Y10.400 F9000
G1 X20.000 Y10.400 E0.7480 F1800
G1 X0.000 Y10.800 F9000
G1 X20.000 Y10.800 E0.7480 F1800
G1 X0.000 Y11.200 F9000
G1 X20.000 Y11.200 E0.7480 F1800
G1 X0.000 Y11.600 F9000
G1 X20.000 Y11.600 E0.7480 F1800
G1 X0.000 Y12.000 F9000
G1 X20.000 Y12.000 E0.7480 F1800
G1 X0.000 Y12.400 F9000
G1 X20.000 Y12.400 E0.7480 F1800
G1 X0.000 Y12.800 F9000
G1 X20.000 Y12.800 E0.7480 F1800
G1 X0.000 Y13.200 F9000
G1 X20.000 Y13.200 E0.7480 F1800
G1 X0.000 Y13.600 F9000
G1 X20.000 Y13.600 E0.7480 F1800
G1 X0.000 Y14.000 F9000
G1 X20.000 Y14.000 E0.7480 F1800
G1 X0.000 Y14.400 F9000
G1 X20.000 Y14.400 E0.7480 F1800
G1 X0.000 Y14.800 F9000
G1 X20.000 Y14.800 E0.7480 F1800
G1 X0.000 Y15.200 F9000
G1 X20.000 Y15.200 E0.7480 F1800
G1 X0.000 Y15.600 F9000
G1 X20.000 Y15.600 E0.7480 F1800
G1 X0.000 Y16.000 F9000
G1 X20.000 Y16.000 E0.7480 F1800
G1 X0.000 Y16.400 F9000
G1 X20.000 Y16.400 E0.7480 F1800
G1 X0.000 Y16.800 F9000
G1 X20.000 Y16.800 E0.7480 F1800
G1 X0.000 Y17.200 F9000
G1 X20.000 Y17.200 E0.7480 F1800
G1 X0.000 Y17.600 F9000
G1 X20.000 Y17.600 E0.7480 F1800
G1 X0.000 Y18.000 F9000
G1 X20.000 Y18.000 E0.7480 F1800
G1 X0.000 Y18.400 F9000
G1 X20.000 Y18.400 E0.7480 F1800
G1 X0.000 Y18.800 F9000
G1 X20.000 Y18.800 E0.7480 F1800
G1 X0.000 Y19.200 F9000
G1 X20.000 Y19.200 E0.7480 F1800
G1 X0.000 Y19.600 F9000
G1 X20.000 Y19.600 E0.7480 F1800
G1 X0.000 Y20.000 F9000
G1 X20.000 Y20.000 E0.7480 F1800
