; Fixture: a 2.5 x 2.4 mm pillar, 24 layers of 0.4 mm, top at Z9.6.
; Exercises: every load-bearing structural criterion failing at once.
; The layer-0 footprint measures ~6.6 mm^2 against the 100 mm^2
; bed-contact bar; the aspect ratio 9.6 / sqrt(6.6) = 3.7 is over the
; 3.0 tipping limit; the island is 2.4 mm across against the 5 mm
; feature-width floor; and no interior point has the 3 mm edge margin.
; A nozzle dragging across this shears it off the plate.
G90
M83
G92 E0
;LAYER_CHANGE
;Z:0.40
G1 Z0.40 F7200
;TYPE:Internal solid infill
G1 X0.000 Y0.000 F9000
G1 X2.500 Y0.000 E0.1870 F1800
G1 X0.000 Y0.400 F9000
G1 X2.500 Y0.400 E0.1870 F1800
G1 X0.000 Y0.800 F9000
G1 X2.500 Y0.800 E0.1870 F1800
G1 X0.000 Y1.200 F9000
G1 X2.500 Y1.200 E0.1870 F1800
G1 X0.000 Y1.600 F9000
G1 X2.500 Y1.600 E0.1870 F1800
G1 X0.000 Y2.000 F9000
G1 X2.500 Y2.000 E0.1870 F1800
G1 X0.000 Y2.400 F9000
G1 X2.500 Y2.400 E0.1870 F1800
;LAYER_CHANGE
;Z:0.80
G1 Z0.80 F7200
;TYPE:Internal solid infill
G1 X0.000 Y0.000 F9000
G1 X2.500 Y0.000 E0.1870 F1800
G1 X0.000 Y0.400 F9000
G1 X2.500 Y0.400 E0.1870 F1800
G1 X0.000 Y0.800 F9000
G1 X2.500 Y0.800 E0.1870 F1800
G1 X0.000 Y1.200 F9000
G1 X2.500 Y1.200 E0.1870 F1800
G1 X0.000 Y1.600 F9000
G1 X2.500 Y1.600 E0.1870 F1800
G1 X0.000 Y2.000 F9000
G1 X2.500 Y2.000 E0.1870 F1800
G1 X0.000 Y2.400 F9000
G1 X2.500 Y2.400 E0.1870 F1800
;LAYER_CHANGE
;Z:1.20
G1 Z1.20 F7200
;TYPE:Internal solid infill
G1 X0.000 Y0.000 F9000
G1 X2.500 Y0.000 E0.1870 F1800
G1 X0.000 Y0.400 F9000
G1 X2.500 Y0.400 E0.1870 F1800
G1 X0.000 Y0.800 F9000
G1 X2.500 Y0.800 E0.1870 F1800
G1 X0.000 Y1.200 F9000
G1 X2.500 Y1.200 E0.1870 F1800
G1 X0.000 Y1.600 F9000
G1 X2.500 Y1.600 E0.1870 F1800
G1 X0.000 Y2.000 F9000
G1 X2.500 Y2.000 E0.1870 F1800
G1 X0.000 Y2.400 F9000
G1 X2.500 Y2.400 E0.1870 F1800
;LAYER_CHANGE
;Z:1.60
G1 Z1.60 F7200
;TYPE:Internal solid infill
G1 X0.000 Y0.000 F9000
G1 X2.500 Y0.000 E0.1870 F1800
G1 X0.000 Y0.400 F9000
G1 X2.500 Y0.400 E0.1870 F1800
G1 X0.000 Y0.800 F9000
G1 X2.500 Y0.800 E0.1870 F1800
G1 X0.000 Y1.200 F9000
G1 X2.500 Y1.200 E0.1870 F1800
G1 X0.000 Y1.600 F9000
G1 X2.500 Y1.600 E0.1870 F1800
G1 X0.000 Y2.000 F9000
G1 X2.500 Y2.000 E0.1870 F1800
G1 X0.000 Y2.400 F9000
G1 X2.500 Y2.400 E0.1870 F1800
;LAYER_CHANGE
;Z:2.00
G1 Z2.00 F7200
;TYPE:Internal solid infill
G1 X0.000 Y0.000 F9000
G1 X2.500 Y0.000 E0.1870 F1800
G1 X0.000 Y0.400 F9000
G1 X2.500 Y0.400 E0.1870 F1800
G1 X0.000 Y0.800 F9000
G1 X2.500 Y0.800 E0.1870 F1800
G1 X0.000 Y1.200 F9000
G1 X2.500 Y1.200 E0.1870 F1800
G1 X0.000 Y1.600 F9000
G1 X2.500 Y1.600 E0.1870 F1800
G1 X0.000 Y2.000 F9000
G1 X2.500 Y2.000 E0.1870 F1800
G1 X0.000 Y2.400 F9000
G1 X2.500 Y2.400 E0.1870 F1800
;LAYER_CHANGE
;Z:2.40
G1 Z2.40 F7200
;TYPE:Internal solid infill
G1 X0.000 Y0.000 F9000
G1 X2.500 Y0.000 E0.1870 F1800
G1 X0.000 Y0.400 F9000
G1 X2.500 Y0.400 E0.1870 F1800
G1 X0.000 Y0.800 F9000
G1 X2.500 Y0.800 E0.1870 F1800
G1 X0.000 Y1.200 F9000
G1 X2.500 Y1.200 E0.1870 F1800
G1 X0.000 Y1.600 F9000
G1 X2.500 Y1.600 E0.1870 F1800
G1 X0.000 Y2.000 F9000
G1 X2.500 Y2.000 E0.1870 F1800
G1 X0.000 Y2.400 F9000
G1 X2.500 Y2.400 E0.1870 F1800
;LAYER_CHANGE
;Z:2.80
G1 Z2.80 F7200
;TYPE:Internal solid infill
G1 X0.000 Y0.000 F9000
G1 X2.500 Y0.000 E0.1870 F1800
G1 X0.000 Y0.400 F9000
G1 X2.500 Y0.400 E0.1870 F1800
G1 X0.000 Y0.800 F9000
G1 X2.500 Y0.800 E0.1870 F1800
G1 X0.000 Y1.200 F9000
G1 X2.500 Y1.200 E0.1870 F1800
G1 X0.000 Y1.600 F9000
G1 X2.500 Y1.600 E0.1870 F1800
G1 X0.000 Y2.000 F9000
G1 X2.500 Y2.000 E0.1870 F1800
G1 X0.000 Y2.400 F9000
G1 X2.500 Y2.400 E0.1870 F1800
;LAYER_CHANGE
;Z:3.20
G1 Z3.20 F7200
;TYPE:Internal solid infill
G1 X0.000 Y0.000 F9000
G1 X2.500 Y0.000 E0.1870 F1800
G1 X0.000 Y0.400 F9000
G1 X2.500 Y0.400 E0.1870 F1800
G1 X0.000 Y0.800 F9000
G1 X2.500 Y0.800 E0.1870 F1800
G1 X0.000 Y1.200 F9000
G1 X2.500 Y1.200 E0.1870 F1800
G1 X0.000 Y1.600 F9000
G1 X2.500 Y1.600 E0.1870 F1800
G1 X0.000 Y2.000 F9000
G1 X2.500 Y2.000 E0.1870 F1800
G1 X0.000 Y2.400 F9000
G1 X2.500 Y2.400 E0.1870 F1800
;LAYER_CHANGE
;Z:3.60
G1 Z3.60 F7200
;TYPE:Internal solid infill
G1 X0.000 Y0.000 F9000
G1 X2.500 Y0.000 E0.1870 F1800
G1 X0.000 Y0.400 F9000
G1 X2.500 Y0.400 E0.1870 F1800
G1 X0.000 Y0.800 F9000
G1 X2.500 Y0.800 E0.1870 F1800
G1 X0.000 Y1.200 F9000
G1 X2.500 Y1.200 E0.1870 F1800
G1 X0.000 Y1.600 F9000
G1 X2.500 Y1.600 E0.1870 F1800
G1 X0.000 Y2.000 F9000
G1 X2.500 Y2.000 E0.1870 F1800
G1 X0.000 Y2.400 F9000
G1 X2.500 Y2.400 E0.1870 F1800
;LAYER_CHANGE
;Z:4.00
G1 Z4.00 F7200
;TYPE:Internal solid infill
G1 X0.000 Y0.000 F9000
G1 X2.500 Y0.000 E0.1870 F1800
G1 X0.000 Y0.400 F9000
G1 X2.500 Y0.400 E0.1870 F1800
G1 X0.000 Y0.800 F9000
G1 X2.500 Y0.800 E0.1870 F1800
G1 X0.000 Y1.200 F9000
G1 X2.500 Y1.200 E0.1870 F1800
G1 X0.000 Y1.600 F9000
G1 X2.500 Y1.600 E0.1870 F1800
G1 X0.000 Y2.000 F9000
G1 X2.500 Y2.000 E0.1870 F1800
G1 X0.000 Y2.400 F9000
G1 X2.500 Y2.400 E0.1870 F1800
;LAYER_CHANGE
;Z:4.40
G1 Z4.40 F7200
;TYPE:Internal solid infill
G1 X0.000 Y0.000 F9000
G1 X2.500 Y0.000 E0.1870 F1800
G1 X0.000 Y0.400 F9000
G1 X2.500 Y0.400 E0.1870 F1800
G1 X0.000 Y0.800 F9000
G1 X2.500 Y0.800 E0.1870 F1800
G1 X0.000 Y1.200 F9000
G1 X2.500 Y1.200 E0.1870 F1800
G1 X0.000 Y1.600 F9000
G1 X2.500 Y1.600 E0.1870 F1800
G1 X0.000 Y2.000 F9000
G1 X2.500 Y2.000 E0.1870 F1800
G1 X0.000 Y2.400 F9000
G1 X2.500 Y2.400 E0.1870 F1800
;LAYER_CHANGE
;Z:4.80
G1 Z4.80 F7200
;TYPE:Internal solid infill
G1 X0.000 Y0.000 F9000
G1 X2.500 Y0.000 E0.1870 F1800
G1 X0.000 Y0.400 F9000
G1 X2.500 Y0.400 E0.1870 F1800
G1 X0.000 Y0.800 F9000
G1 X2.500 Y0.800 E0.1870 F1800
G1 X0.000 Y1.200 F9000
G1 X2.500 Y1.200 E0.1870 F1800
G1 X0.000 Y1.600 F9000
G1 X2.500 Y1.600 E0.1870 F1800
G1 X0.000 Y2.000 F9000
G1 X2.500 Y2.000 E0.1870 F1800
G1 X0.000 Y2.400 F9000
G1 X2.500 Y2.400 E0.1870 F1800
;LAYER_CHANGE
;Z:5.20
G1 Z5.20 F7200
;TYPE:Internal solid infill
G1 X0.000 Y0.000 F9000
G1 X2.500 Y0.000 E0.1870 F1800
G1 X0.000 Y0.400 F9000
G1 X2.500 Y0.400 E0.1870 F1800
G1 X0.000 Y0.800 F9000
G1 X2.500 Y0.800 E0.1870 F1800
G1 X0.000 Y1.200 F9000
G1 X2.500 Y1.200 E0.1870 F1800
G1 X0.000 Y1.600 F9000
G1 X2.500 Y1.600 E0.1870 F1800
G1 X0.000 Y2.000 F9000
G1 X2.500 Y2.000 E0.1870 F1800
G1 X0.000 Y2.400 F9000
G1 X2.500 Y2.400 E0.1870 F1800
;LAYER_CHANGE
;Z:5.60
G1 Z5.60 F7200
;TYPE:Internal solid infill
G1 X0.000 Y0.000 F9000
G1 X2.500 Y0.000 E0.1870 F1800
G1 X0.000 Y0.400 F9000
G1 X2.500 Y0.400 E0.1870 F1800
G1 X0.000 Y0.800 F9000
G1 X2.500 Y0.800 E0.1870 F1800
G1 X0.000 Y1.200 F9000
G1 X2.500 Y1.200 E0.1870 F1800
G1 X0.000 Y1.600 F9000
G1 X2.500 Y1.600 E0.1870 F1800
G1 X0.000 Y2.000 F9000
G1 X2.500 Y2.000 E0.1870 F1800
G1 X0.000 Y2.400 F9000
G1 X2.500 Y2.400 E0.1870 F1800
;LAYER_CHANGE
;Z:6.00
G1 Z6.00 F7200
;TYPE:Internal solid infill
G1 X0.000 Y0.000 F9000
G1 X2.500 Y0.000 E0.1870 F1800
G1 X0.000 Y0.400 F9000
G1 X2.500 Y0.400 E0.1870 F1800
G1 X0.000 Y0.800 F9000
G1 X2.500 Y0.800 E0.1870 F1800
G1 X0.000 Y1.200 F9000
G1 X2.500 Y1.200 E0.1870 F1800
G1 X0.000 Y1.600 F9000
G1 X2.500 Y1.600 E0.1870 F1800
G1 X0.000 Y2.000 F9000
G1 X2.500 Y2.000 E0.1870 F1800
G1 X0.000 Y2.400 F9000
G1 X2.500 Y2.400 E0.1870 F1800
;LAYER_CHANGE
;Z:6.40
G1 Z6.40 F7200
;TYPE:Internal solid infill
G1 X0.000 Y0.000 F9000
G1 X2.500 Y0.000 E0.1870 F1800
G1 X0.000 Y0.400 F9000
G1 X2.500 Y0.400 E0.1870 F1800
G1 X0.000 Y0.800 F9000
G1 X2.500 Y0.800 E0.1870 F1800
G1 X0.000 Y1.200 F9000
G1 X2.500 Y1.200 E0.1870 F1800
G1 X0.000 Y1.600 F9000
G1 X2.500 Y1.600 E0.1870 F1800
G1 X0.000 Y2.000 F9000
G1 X2.500 Y2.000 E0.1870 F1800
G1 X0.000 Y2.400 F9000
G1 X2.500 Y2.400 E0.1870 F1800
;LAYER_CHANGE
;Z:6.80
G1 Z6.80 F7200
;TYPE:Internal solid infill
G1 X0.000 Y0.000 F9000
G1 X2.500 Y0.000 E0.1870 F1800
G1 X0.000 Y0.400 F9000
G1 X2.500 Y0.400 E0.1870 F1800
G1 X0.000 Y0.800 F9000
G1 X2.500 Y0.800 E0.1870 F1800
G1 X0.000 Y1.200 F9000
G1 X2.500 Y1.200 E0.1870 F1800
G1 X0.000 Y1.600 F9000
G1 X2.500 Y1.600 E0.1870 F1800
G1 X0.000 Y2.000 F9000
G1 X2.500 Y2.000 E0.1870 F1800
G1 X0.000 Y2.400 F9000
G1 X2.500 Y2.400 E0.1870 F1800
;LAYER_CHANGE
;Z:7.20
G1 Z7.20 F7200
;TYPE:Internal solid infill
G1 X0.000 Y0.000 F9000
G1 X2.500 Y0.000 E0.1870 F1800
G1 X0.000 Y0.400 F9000
G1 X2.500 Y0.400 E0.1870 F1800
G1 X0.000 Y0.800 F9000
G1 X2.500 Y0.800 E0.1870 F1800
G1 X0.000 Y1.200 F9000
G1 X2.500 Y1.200 E0.1870 F1800
G1 X0.000 Y1.600 F9000
G1 X2.500 Y1.600 E0.1870 F1800
G1 X0.000 Y2.000 F9000
G1 X2.500 Y2.000 E0.1870 F1800
G1 X0.000 Y2.400 F9000
G1 X2.500 Y2.400 E0.1870 F1800
;LAYER_CHANGE
;Z:7.60
G1 Z7.60 F7200
;TYPE:Internal solid infill
G1 X0.000 Y0.000 F9000
G1 X2.500 Y0.000 E0.1870 F1800
G1 X0.000 Y0.400 F9000
G1 X2.500 Y0.400 E0.1870 F1800
G1 X0.000 Y0.800 F9000
G1 X2.500 Y0.800 E0.1870 F1800
G1 X0.000 Y1.200 F9000
G1 X2.500 Y1.200 E0.1870 F1800
G1 X0.000 Y1.600 F9000
G1 X2.500 Y1.600 E0.1870 F1800
G1 X0.000 Y2.000 F9000
G1 X2.500 Y2.000 E0.1870 F1800
G1 X0.000 Y2.400 F9000
G1 X2.500 Y2.400 E0.1870 F1800
;LAYER_CHANGE
;Z:8.00
G1 Z8.00 F7200
;TYPE:Internal solid infill
G1 X0.000 Y0.000 F9000
G1 X2.500 Y0.000 E0.1870 F1800
G1 X0.000 Y0.400 F9000
G1 X2.500 Y0.400 E0.1870 F1800
G1 X0.000 Y0.800 F9000
G1 X2.500 Y0.800 E0.1870 F1800
G1 X0.000 Y1.200 F9000
G1 X2.500 Y1.200 E0.1870 F1800
G1 X0.000 Y1.600 F9000
G1 X2.500 Y1.600 E0.1870 F1800
G1 X0.000 Y2.000 F9000
G1 X2.500 Y2.000 E0.1870 F1800
G1 X0.000 Y2.400 F9000
G1 X2.500 Y2.400 E0.1870 F1800
;LAYER_CHANGE
;Z:8.40
G1 Z8.40 F7200
;TYPE:Internal solid infill
G1 X0.000 Y0.000 F9000
G1 X2.500 Y0.000 E0.1870 F1800
G1 X0.000 Y0.400 F9000
G1 X2.500 Y0.400 E0.1870 F1800
G1 X0.000 Y0.800 F9000
G1 X2.500 Y0.800 E0.1870 F1800
G1 X0.000 Y1.200 F9000
G1 X2.500 Y1.200 E0.1870 F1800
G1 X0.000 Y1.600 F9000
G1 X2.500 Y1.600 E0.1870 F1800
G1 X0.000 Y2.000 F9000
G1 X2.500 Y2.000 E0.1870 F1800
G1 X0.000 Y2.400 F9000
G1 X2.500 Y2.400 E0.1870 F1800
;LAYER_CHANGE
;Z:8.80
G1 Z8.80 F7200
;TYPE:Internal solid infill
G1 X0.000 Y0.000 F9000
G1 X2.500 Y0.000 E0.1870 F1800
G1 X0.000 Y0.400 F9000
G1 X2.500 Y0.400 E0.1870 F1800
G1 X0.000 Y0.800 F9000
G1 X2.500 Y0.800 E0.1870 F1800
G1 X0.000 Y1.200 F9000
G1 X2.500 Y1.200 E0.1870 F1800
G1 X0.000 Y1.600 F9000
G1 X2.500 Y1.600 E0.1870 F1800
G1 X0.000 Y2.000 F9000
G1 X2.500 Y2.000 E0.1870 F1800
G1 X0.000 Y2.400 F9000
G1 X2.500 Y2.400 E0.1870 F1800
;LAYER_CHANGE
;Z:9.20
G1 Z9.20 F7200
;TYPE:Internal solid infill
G1 X0.000 Y0.000 F9000
G1 X2.500 Y0.000 E0.1870 F1800
G1 X0.000 Y0.400 F9000
G1 X2.500 Y0.400 E0.1870 F1800
G1 X0.000 Y0.800 F9000
G1 X2.500 Y0.800 E0.1870 F1800
G1 X0.000 Y1.200 F9000
G1 X2.500 Y1.200 E0.1870 F1800
G1 X0.000 Y1.600 F9000
G1 X2.500 Y1.600 E0.1870 F1800
G1 X0.000 Y2.000 F9000
G1 X2.500 Y2.000 E0.1870 F1800
G1 X0.000 Y2.400 F9000
G1 X2.500 Y2.400 E0.1870 F1800
;LAYER_CHANGE
;Z:9.60
G1 Z9.60 F7200
;TYPE:Internal solid infill
G1 X0.000 Y0.000 F9000
G1 X2.500 Y0.000 E0.1870 F1800
G1 X0.000 Y0.400 F9000
G1 X2.500 Y0.400 E0.1870 F1800
G1 X0.000 Y0.800 F9000
G1 X2.500 Y0.800 E0.1870 F1800
G1 X0.000 Y1.200 F9000
G1 X2.500 Y1.200 E0.1870 F1800
G1 X0.000 Y1.600 F9000
G1 X2.500 Y1.600 E0.1870 F1800
G1 X0.000 Y2.000 F9000
G1 X2.500 Y2.000 E0.1870 F1800
G1 X0.000 Y2.400 F9000
G1 X2.500 Y2.400 E0.1870 F1800
